Zip	City	State	Latitude	Longitude
60651	Chicago	IL	41.901485	-87.74055
62090	Venice	IL	38.67065	-90.17052
62420	Casey	IL	39.299447	-87.99863
62206	East Saint Louis	IL	38.564451	-90.1628
62611	Arenzville	IL	39.883346	-90.39332
60974	Woodland	IL	40.710295	-87.73137
62001	Alhambra	IL	38.884434	-89.74886
60025	Glenview	IL	42.07672	-87.81922
62676	Hillyard	IL	39.128248	-89.923215
60139	Glendale Heights	IL	41.920228	-88.07891
60438	Lansing	IL	41.565685	-87.54819
61107	Rockford	IL	42.280019	-89.03347
61866	Rantoul	IL	40.307065	-88.15575
60697	Chicago	IL	41.811929	-87.68732
62464	Stoy	IL	38.98981	-87.839627
62248	Hecker	IL	38.299507	-89.961825
62549	Mt Zion	IL	39.777116	-88.87171
61132	Loves Park	IL	42.325364	-89.170527
62903	Carbondale	IL	37.758646	-89.415831
62069	Mount Olive	IL	39.077557	-89.73423
62856	Logan	IL	37.994296	-88.941665
62957	McClure	IL	37.305331	-89.43066
60465	Palos Hills	IL	41.699432	-87.82977
62083	Rosamond	IL	39.354674	-89.19993
62421	Claremont	IL	38.755492	-87.95334
60069	Lincolnshire	IL	42.188074	-87.92717
60667	Chicago	IL	41.811929	-87.68732
60694	Chicago	IL	41.811929	-87.68732
60935	Essex	IL	41.17569	-88.17268
61453	Little York	IL	41.010666	-90.75393
62837	Fairfield	IL	38.374627	-88.35735
60684	Chicago	IL	41.811929	-87.68732
60931	Donovan	IL	40.876303	-87.60159
61553	Norris	IL	40.449305	-90.161761
62272	Percy	IL	38.006386	-89.61645
62346	La Prairie	IL	40.151799	-90.95426
60408	Braidwood	IL	41.262178	-88.22307
61546	Manito	IL	40.442037	-89.78797
61632	Peoria	IL	40.765301	-89.569207
61870	Ridge Farm	IL	39.90241	-87.62722
62513	Blue Mound	IL	39.716269	-89.13269
61450	La Harpe	IL	40.567399	-90.97066
62324	Clayton	IL	39.988988	-90.94976
62871	Omaha	IL	37.877628	-88.29114
62655	Kilbourne	IL	40.147371	-90.00698
60125	Carol Stream	IL	41.839679	-88.088716
60922	Chebanse	IL	41.005603	-87.90649
61329	Ladd	IL	41.380259	-89.21239
62257	Marissa	IL	38.260108	-89.73627
60136	Gilberts	IL	42.099479	-88.36942
61727	Clinton	IL	40.145501	-88.96776
61416	Bardolph	IL	40.496817	-90.56334
60969	Union Hill	IL	41.109101	-88.14732
61052	Monroe Center	IL	42.110548	-89.00751
60153	Maywood	IL	41.880281	-87.84455
61702	Bloomington	IL	40.519236	-88.864303
60401	Beecher	IL	41.350484	-87.62408
61761	Normal	IL	40.515485	-88.98629
60174	Saint Charles	IL	41.919808	-88.30498
60304	Oak Park	IL	41.87355	-87.7885
62706	Springfield	IL	39.79885	-89.653399
62006	Batchtown	IL	39.079147	-90.67372
60064	North Chicago	IL	42.326072	-87.85202
61840	Dewey	IL	40.310244	-88.30526
62340	Griggsville	IL	39.71345	-90.72045
62341	Hamilton	IL	40.402015	-91.33182
62685	Shipman	IL	39.14665	-90.00059
61730	Cooksville	IL	40.537652	-88.73274
62459	Sainte Marie	IL	38.93148	-88.0252
61880	Tolono	IL	39.981936	-88.2532
61428	Dahinda	IL	40.952695	-90.12141
61650	Peoria	IL	40.744179	-89.718401
62348	Lima	IL	40.180236	-91.37791
61077	Seward	IL	42.236813	-89.35828
61109	Rockford	IL	42.213439	-89.05595
61760	Minonk	IL	40.893593	-89.03266
61616	Peoria	IL	40.743266	-89.576628
60045	Lake Forest	IL	42.238087	-87.86093
61462	Monmouth	IL	40.918849	-90.64466
62017	Coffeen	IL	39.081889	-89.37787
61441	Ipava	IL	40.337555	-90.30458
62242	Evansville	IL	38.092615	-89.93485
61279	Reynolds	IL	41.31653	-90.70671
61017	Coleta	IL	41.902977	-89.804293
61241	Colona	IL	41.483484	-90.34046
61270	Morrison	IL	41.819003	-89.96623
61354	Peru	IL	41.330789	-89.1299
62846	Ina	IL	38.149474	-88.89634
62870	Odin	IL	38.614141	-89.04738
60088	Great Lakes	IL	42.312372	-87.85284
62079	Piasa	IL	39.115848	-90.13336
62233	Chester	IL	37.921816	-89.82842
62468	Toledo	IL	39.273828	-88.25646
62975	Pomona	IL	37.618822	-89.3617
61883	Westville	IL	40.040115	-87.63685
62411	Altamont	IL	39.062913	-88.73912
60927	Clifton	IL	40.937573	-87.94105
62231	Carlyle	IL	38.623384	-89.36368
60644	Chicago	IL	41.881331	-87.75671
61311	Ancona	IL	41.042878	-88.86268
62050	Hillview	IL	39.430595	-90.54502
61940	Metcalf	IL	39.805101	-87.81014
60044	Lake Bluff	IL	42.286222	-87.86309
61601	Peoria	IL	40.693137	-89.589847
62896	West Frankfort	IL	37.894496	-88.93037
60118	Dundee	IL	42.101502	-88.28891
62918	Carterville	IL	37.766029	-89.08355
60568	Aurora	IL	41.935616	-88.43238
60553	Steward	IL	41.830628	-89.01704
62894	Waltonville	IL	38.212746	-89.03866
62842	Geff	IL	38.460323	-88.37124
62208	Fairview Heights	IL	38.596199	-90.00227
60115	Dekalb	IL	41.924127	-88.74617
60143	Itasca	IL	41.972328	-88.02196
60134	Geneva	IL	41.885728	-88.31957
60012	Crystal Lake	IL	42.265643	-88.31664
61330	La Moille	IL	41.53364	-89.27691
61470	Prairie City	IL	40.614899	-90.47345
60478	Country Club Hills	IL	41.561134	-87.72398
61529	Elmwood	IL	40.780415	-89.95565
62514	Boody	IL	39.759905	-89.05465
60330	River Forest	IL	41.882081	-87.821359
62060	Madison	IL	38.6807	-90.15411
61852	Longview	IL	39.901988	-88.07537
62726	Springfield	IL	39.749457	-89.606017
62878	Rinard	IL	38.578119	-88.49714
62366	Pleasant Hill	IL	39.450931	-90.87779
60668	Chicago	IL	41.811929	-87.68732
61106	Rockford	IL	42.325364	-89.170527
61563	Saint David	IL	40.489747	-90.05501
61848	Henning	IL	40.306282	-87.70192
62370	Rockport	IL	39.510835	-90.99193
62736	Springfield	IL	39.749457	-89.606017
62855	Lancaster	IL	38.403424	-87.818672
62691	Virginia	IL	39.952909	-90.21218
62811	Bellmont	IL	38.384799	-87.90949
62974	Pittsburg	IL	37.780592	-88.82344
61275	Port Byron	IL	41.599642	-90.31978
61276	Preemption	IL	41.30589	-90.5979
62033	Gillespie	IL	39.127717	-89.8288
61554	Pekin	IL	40.567088	-89.63382
60137	Glen Ellyn	IL	41.869779	-88.06285
60646	Chicago	IL	41.995331	-87.7601
60654	Chicago	IL	41.888627	-87.63538
61802	Urbana	IL	40.121648	-88.17649
62031	Fieldon	IL	39.103735	-90.54252
61110	Rockford	IL	42.325364	-89.170527
61518	Brimfield	IL	40.744179	-89.718401
62987	Stonefort	IL	37.635792	-88.67912
61488	Wataga	IL	41.030951	-90.29705
62202	East Saint Louis	IL	38.6163	-90.159059
61949	Redmon	IL	39.646359	-87.86014
62354	Nauvoo	IL	40.531825	-91.36598
62961	Millcreek	IL	37.340918	-89.254203
60004	Arlington Heights	IL	42.108428	-87.97723
60538	Montgomery	IL	41.721886	-88.32972
61336	Magnolia	IL	41.111077	-89.21207
60443	Matteson	IL	41.503468	-87.73695
62305	Quincy	IL	39.96008	-91.302633
62378	Versailles	IL	39.884796	-90.6289
62665	Meredosia	IL	39.818631	-90.55791
61854	Mansfield	IL	40.213607	-88.5296
60016	Des Plaines	IL	42.047178	-87.89058
60545	Plano	IL	41.665654	-88.53697
61075	Scales Mound	IL	42.473737	-90.25362
62791	Springfield	IL	39.749457	-89.606017
60031	Gurnee	IL	42.375821	-87.93517
62511	Atwater	IL	39.346468	-89.73278
61625	Peoria	IL	40.696287	-89.616648
62224	Mascoutah	IL	38.439983	-89.983521
62358	Niota	IL	40.587769	-91.26301
62865	Mulkeytown	IL	37.963264	-89.06906
60187	Wheaton	IL	41.858279	-88.10904
61543	Liverpool	IL	40.392048	-89.99885
61728	Colfax	IL	40.56944	-88.62727
62887	Springerton	IL	38.185822	-88.36923
62970	Olmsted	IL	37.199769	-89.10964
60921	Chatsworth	IL	40.757447	-88.29306
61254	Geneseo	IL	41.464473	-90.15854
61528	Edwards	IL	40.776845	-89.7401
60162	Hillside	IL	41.872997	-87.90101
61525	Dunlap	IL	40.849036	-89.65554
62292	Tilden	IL	38.214035	-89.68346
60048	Libertyville	IL	42.290922	-87.95169
61012	Capron	IL	42.401104	-88.74726
61060	Orangeville	IL	42.475891	-89.63404
61722	Arrowsmith	IL	40.434885	-88.62237
61928	Gays	IL	39.45274	-88.5144
60062	Northbrook	IL	42.124576	-87.84303
61914	Bethany	IL	39.639487	-88.74383
60507	Aurora	IL	41.936977	-88.420178
60521	Hinsdale	IL	41.772915	-87.92996
61237	Buffalo Prairie	IL	41.336752	-90.852226
61490	Woodhull	IL	41.183299	-90.27637
62812	Benton	IL	38.000245	-88.92407
60007	Elk Grove Village	IL	42.005978	-87.99847
62347	Liberty	IL	39.876235	-91.1106
62401	Effingham	IL	39.123807	-88.56
62432	Hidalgo	IL	39.139262	-88.14862
62286	Sparta	IL	38.122112	-89.71168
60452	Oak Forest	IL	41.605633	-87.75356
60041	Ingleside	IL	42.372721	-88.15303
60133	Hanover Park	IL	41.980896	-88.144475
60054	McHenry	IL	42.35344	-88.260692
61655	Peoria	IL	40.744179	-89.718401
62330	Dallas City	IL	40.630407	-91.15278
61258	Hooppole	IL	41.522044	-89.91216
61833	Tilton	IL	40.096186	-87.64569
60116	Carol Stream	IL	41.839679	-88.088716
60919	Cabery	IL	40.987824	-88.23737
61273	Orion	IL	41.357236	-90.38482
61742	Goodfield	IL	40.628105	-89.28004
62932	Elkville	IL	37.907619	-89.23151
62056	Litchfield	IL	39.179875	-89.65721
62218	Bartelso	IL	38.535097	-89.46426
61350	Ottawa	IL	41.35263	-88.84734
60691	Chicago	IL	41.811929	-87.68732
60699	Chicago	IL	41.811929	-87.68732
61559	Princeville	IL	40.935608	-89.76802
60534	Lyons	IL	41.812331	-87.82318
61374	Van Orin	IL	41.543813	-89.35449
61839	De Land	IL	40.139336	-88.62966
62928	Eddyville	IL	37.501552	-88.58141
62850	Johnsonville	IL	38.513119	-88.58911
60473	South Holland	IL	41.597472	-87.59909
62273	Pierron	IL	38.780229	-89.5973
61058	Nelson	IL	41.797256	-89.599529
61231	Aledo	IL	41.202461	-90.73137
61741	Forrest	IL	40.756972	-88.40479
60067	Palatine	IL	42.10979	-88.04917
61054	Mount Morris	IL	42.046139	-89.44025
61335	McNabb	IL	41.168946	-89.2205
62061	Marine	IL	38.78956	-89.77538
62259	Menard	IL	38.013132	-89.899569
62479	Wheeler	IL	39.038732	-88.31569
62625	Cantrall	IL	39.909732	-89.68831
61278	Rapids City	IL	41.585883	-90.343228
62639	Frederick	IL	40.04195	-90.46831
62816	Bonnie	IL	38.192726	-88.93138
62909	Boles	IL	37.44725	-88.876792
60090	Wheeling	IL	42.131526	-87.92958
60805	Evergreen Park	IL	41.719933	-87.70249
61108	Rockford	IL	42.254087	-89.01776
62344	Huntsville	IL	40.18275	-90.81819
62515	Buffalo	IL	39.861289	-89.37836
60432	Joliet	IL	41.533631	-88.05592
61250	Erie	IL	41.657803	-90.08613
61085	Stockton	IL	42.350108	-90.02362
61319	Cornell	IL	41.011259	-88.74854
61820	Champaign	IL	40.114931	-88.24322
62615	Auburn	IL	39.588902	-89.75177
61753	Lexington	IL	40.63872	-88.7923
62043	Brushy Mound	IL	39.213822	-89.82872
61924	Chrisman	IL	39.786334	-87.66325
62705	Springfield	IL	39.749457	-89.606017
60196	Schaumburg	IL	42.056376	-88.072522
61370	Tonica	IL	41.21076	-89.03886
60956	Papineau	IL	40.966993	-87.716074
62243	Freeburg	IL	38.425949	-89.90389
60030	Grayslake	IL	42.338955	-88.03433
61748	Hudson	IL	40.627948	-88.97711
61853	Mahomet	IL	40.205916	-88.40295
62025	Edwardsville	IL	38.819297	-89.9551
60558	Western Springs	IL	41.805531	-87.90103
62447	Neoga	IL	39.32205	-88.45037
60926	Claytonville	IL	40.572516	-87.81825
62640	Girard	IL	39.436584	-89.8028
60075	Russell	IL	42.322814	-87.610053
60019	Des Plaines	IL	42.024278	-87.907066
60051	Mchenry	IL	42.324761	-88.452481
62921	Colp	IL	37.804876	-89.08118
61115	Machesney Park	IL	42.352539	-89.04186
61344	Mineral	IL	41.394429	-89.84111
61819	Bryant	IL	40.466273	-90.095368
62938	Golconda	IL	37.374723	-88.52571
62947	Herod	IL	37.567779	-88.39925
61042	Harmon	IL	41.69339	-89.56986
62942	Grand Tower	IL	37.629601	-89.48077
61101	Rockford	IL	42.292221	-89.12574
60475	Steger	IL	41.470084	-87.63369
62626	Carlinville	IL	39.280289	-89.8757
60017	Des Plaines	IL	42.028779	-87.894366
62886	Sims	IL	38.374398	-88.53537
60451	New Lenox	IL	41.509231	-87.96475
60938	Gilman	IL	40.767194	-87.98929
62829	Dale	IL	37.999757	-88.50469
62448	Newton	IL	38.974018	-88.17881
61038	Garden Prairie	IL	42.255617	-88.74344
60155	Broadview	IL	41.857931	-87.85477
60516	Downers Grove	IL	41.761463	-88.01334
62092	White Hall	IL	39.433041	-90.40655
60519	Eola	IL	41.778379	-88.24268
62441	Marshall	IL	39.396463	-87.69589
61310	Amboy	IL	41.707588	-89.34371
62621	Bluffs	IL	39.740558	-90.53937
62014	Bunker Hill	IL	39.039382	-89.94935
61414	Altona	IL	41.117342	-90.16063
61841	Fairmount	IL	40.039632	-87.83052
62543	Latham	IL	39.965691	-89.15936
60407	Braceville	IL	41.230524	-88.25503
61260	Joy	IL	41.228561	-90.87565
60915	Bradley	IL	41.144256	-87.86239
60499	Bedford Park	IL	41.811929	-87.68732
62018	Cottage Hills	IL	38.905998	-90.08306
62547	Mount Auburn	IL	39.771541	-89.24331
60518	Earlville	IL	41.599139	-88.91932
62439	Lawrenceville	IL	38.738226	-87.65984
62551	Niantic	IL	39.838505	-89.15191
61348	Oglesby	IL	41.292401	-89.05943
62544	Macon	IL	39.693983	-88.98068
60457	Hickory Hills	IL	41.723782	-87.82825
62301	Quincy	IL	39.929597	-91.37415
62417	Bridgeport	IL	38.720425	-87.76815
60179	Hoffman Estates	IL	42.079336	-88.223655
61010	Byron	IL	42.131245	-89.26637
62478	West York	IL	39.175832	-87.72312
62939	Goreville	IL	37.558235	-88.96661
61775	Strawn	IL	40.653799	-88.39026
60085	Waukegan	IL	42.361271	-87.86187
60110	Carpentersville	IL	42.121188	-88.27227
60147	Lafox	IL	41.936977	-88.420178
62794	Springfield	IL	39.749457	-89.606017
62847	Iola	IL	38.757302	-88.473594
60442	Manhattan	IL	41.407474	-87.96883
61324	Eldena	IL	41.770952	-89.41267
62034	Glen Carbon	IL	38.75592	-89.97442
62266	New Memphis	IL	38.478	-89.67869
60683	Chicago	IL	41.811929	-87.68732
62010	Bethalto	IL	38.912297	-90.043
62419	Calhoun	IL	38.625864	-87.99407
62080	Ramsey	IL	39.136284	-89.10348
61435	Gerlaw	IL	40.972589	-90.54835
61480	Stronghurst	IL	40.727428	-90.91347
61770	Saybrook	IL	40.430727	-88.52548
62601	Alexander	IL	39.754308	-90.02786
60099	Zion	IL	42.451371	-87.84862
61206	Rock Island	IL	41.554901	-90.615975
62067	Moro	IL	38.91973	-90.01241
62757	Springfield	IL	39.749457	-89.606017
61751	Lawndale	IL	40.21927	-89.285172
62258	Mascoutah	IL	38.481674	-89.79432
60126	Elmhurst	IL	41.89103	-87.94181
62571	Tower Hill	IL	39.385344	-88.95588
62781	Springfield	IL	39.749457	-89.606017
61615	Peoria	IL	40.764368	-89.6448
61818	Cerro Gordo	IL	39.889596	-88.72633
61327	Hennepin	IL	41.252101	-89.32451
62560	Raymond	IL	39.312686	-89.59541
62650	Jacksonville	IL	39.730234	-90.22941
61485	Victoria	IL	41.025484	-90.08422
62616	Philadelphia	IL	39.852164	-90.143114
61520	Canton	IL	40.552853	-90.02794
62520	Dawson	IL	39.824457	-89.45643
62820	Burnt Prairie	IL	38.247883	-88.22944
61238	Cambridge	IL	41.286797	-90.17486
61358	Rutland	IL	40.986256	-89.04364
61865	Potomac	IL	40.306774	-87.80716
62036	Golden Eagle	IL	38.91384	-90.57421
62836	Ewing	IL	38.096551	-88.82763
62766	Springfield	IL	39.749457	-89.606017
62810	Belle Rive	IL	38.218349	-88.73999
60009	Elk Grove Village	IL	41.811929	-87.68732
62357	New Salem	IL	39.696523	-90.84253
60108	Bloomingdale	IL	41.94954	-88.08256
61353	Paw Paw	IL	41.690735	-88.98815
61562	Rome	IL	40.874269	-89.506695
62220	Belleville	IL	38.50046	-89.97654
62983	Royalton	IL	37.884066	-89.11128
61334	Lostant	IL	41.144329	-89.08815
62016	Carrollton	IL	39.301561	-90.41674
62972	Ozark	IL	37.548762	-88.74145
60191	Wood Dale	IL	41.962979	-87.97688
61810	Allerton	IL	39.909736	-87.93384
62476	West Salem	IL	38.527107	-88.00583
62951	Johnston City	IL	37.820724	-88.92647
60161	Melrose Park	IL	41.811929	-87.68732
60616	Chicago	IL	41.8474	-87.63126
62081	Rockbridge	IL	39.261499	-90.23039
60924	Cissna Park	IL	40.565374	-87.88177
61059	Nora	IL	42.455036	-89.94561
62236	Columbia	IL	38.442906	-90.20775
62252	Huey	IL	38.601768	-89.291549
60146	Kirkland	IL	42.100571	-88.87665
60018	Des Plaines	IL	42.008429	-87.89234
61105	Rockford	IL	42.325364	-89.170527
62667	Modesto	IL	39.487357	-89.99143
62548	Mount Pulaski	IL	39.993254	-89.29707
61021	Dixon	IL	41.843702	-89.47636
61720	Anchor	IL	40.553838	-88.5101
62077	Panama	IL	39.031623	-89.5228
62012	Brighton	IL	39.038752	-90.13819
62035	Godfrey	IL	38.947841	-90.2216
62522	Decatur	IL	39.840482	-89.00569
62694	Winchester	IL	39.628929	-90.46107
62998	Wolf Lake	IL	37.508233	-89.43987
60647	Chicago	IL	41.921126	-87.70085
61635	Peoria	IL	40.744179	-89.718401
62460	Saint Francisville	IL	38.596277	-87.65542
62923	Cypress	IL	37.34	-89.03177
62940	Gorham	IL	37.727109	-89.47618
60061	Vernon Hills	IL	42.229856	-87.96779
61726	Chenoa	IL	40.740106	-88.70948
62634	Elkhart	IL	40.02489	-89.46592
61373	Utica	IL	41.37061	-89.0149
60459	Burbank	IL	41.744082	-87.77022
60510	Batavia	IL	41.845228	-88.30995
61472	Rio	IL	41.105401	-90.38717
62695	Woodson	IL	39.627307	-90.22101
60597	Fox Valley	IL	41.839679	-88.088716
61548	Metamora	IL	40.784412	-89.40841
61593	Garrett	IL	39.809913	-88.343237
60468	Peotone	IL	41.331114	-87.79917
60013	Cary	IL	42.217523	-88.24338
60121	Elgin	IL	42.04133	-88.3126
61360	Seneca	IL	41.320345	-88.61017
62866	Nason	IL	38.16542	-88.967551
60076	Skokie	IL	42.03618	-87.7321
62334	Elvaston	IL	40.396983	-91.25029
61232	Andalusia	IL	41.440852	-90.71957
61611	East Peoria	IL	40.683387	-89.54493
60129	Esmond	IL	42.034502	-88.97084
61362	Spring Valley	IL	41.332908	-89.20847
62924	De Soto	IL	37.82526	-89.20301
60957	Paxton	IL	40.448736	-88.11405
60164	Melrose Park	IL	41.91823	-87.89627
60606	Chicago	IL	41.882582	-87.6376
62306	Quincy	IL	39.97863	-91.21256
62438	Lakewood	IL	39.317235	-88.87876
61542	Lewistown	IL	40.39309	-90.13748
62320	Camp Point	IL	40.020397	-91.07407
60160	Melrose Park	IL	41.89988	-87.85978
60623	Chicago	IL	41.850232	-87.718
60501	Summit Argo	IL	41.784832	-87.81
60549	Serena	IL	41.490329	-88.74998
61074	Savanna	IL	42.099635	-90.12858
61466	North Henderson	IL	41.100353	-90.46726
62999	Zeigler	IL	37.8974	-89.05385
61315	Bureau	IL	41.289819	-89.37069
60663	Chicago	IL	41.811929	-87.68732
61911	Arthur	IL	39.704391	-88.45985
62098	Wrights	IL	39.376153	-90.293302
62244	Fults	IL	38.200113	-90.2272
61422	Bushnell	IL	40.550883	-90.51766
61803	Urbana	IL	40.10593	-88.224669
62806	Albion	IL	38.375576	-88.07169
60609	Chicago	IL	41.814283	-87.65282
62463	Stewardson	IL	39.2807	-88.62403
62692	Waverly	IL	39.583983	-89.9396
60966	Sheldon	IL	40.762507	-87.57423
62058	Livingston	IL	38.967324	-89.76133
60029	Golf	IL	42.056529	-87.79286
62024	East Alton	IL	38.868136	-90.08023
61425	Carman	IL	40.778519	-91.05902
62786	Springfield	IL	39.749457	-89.606017
62832	Du Quoin	IL	38.011729	-89.24688
62839	Flora	IL	38.667752	-88.48855
60439	Lemont	IL	41.676028	-87.98258
62819	Buckner	IL	37.980455	-89.01261
60803	Alsip	IL	41.675861	-87.73189
61359	Seatonville	IL	41.363772	-89.26975
61460	Media	IL	40.734056	-90.82654
62874	Orient	IL	37.921795	-88.97892
62237	Coulterville	IL	38.188624	-89.59789
60440	Bolingbrook	IL	41.703097	-88.07462
62223	Belleville	IL	38.55615	-90.05078
62538	Harvel	IL	39.359529	-89.52648
62713	Springfield	IL	39.749457	-89.606017
61356	Princeton	IL	41.372528	-89.44315
62268	Oakdale	IL	38.271313	-89.51773
60930	Danforth	IL	40.823527	-87.9874
62063	Medora	IL	39.188838	-90.14654
62205	East Saint Louis	IL	38.6151	-90.12675
62217	Baldwin	IL	38.178395	-89.84183
61933	Kansas	IL	39.556054	-87.92289
61491	Wyoming	IL	41.068691	-89.76033
61436	Gilson	IL	40.859964	-90.22212
62240	East Carondelet	IL	38.535325	-90.21617
62557	Pana	IL	39.3928	-89.08194
60546	Riverside	IL	41.836131	-87.82163
61545	Lowpoint	IL	40.873236	-89.37082
62226	Belleville	IL	38.53895	-90.00104
62623	Oakford	IL	40.104623	-89.96382
60944	Hopkins Park	IL	41.146464	-87.888971
62690	Virden	IL	39.503383	-89.76667
62994	Vergennes	IL	37.901441	-89.33485
60084	Wauconda	IL	42.263181	-88.14328
60526	La Grange Park	IL	41.829831	-87.8704
60537	Millington	IL	41.56253	-88.59921
62638	Franklin	IL	39.609647	-90.08116
60203	Evanston	IL	42.048879	-87.7175
60190	Winfield	IL	41.875228	-88.15261
62997	Willisville	IL	37.983687	-89.5905
60422	Flossmoor	IL	41.539384	-87.68424
61555	Pekin	IL	40.56071	-89.650232
61759	Minier	IL	40.431577	-89.32013
61816	Broadlands	IL	39.91613	-88.00203
62021	Dorsey	IL	38.976011	-89.97461
62467	Teutopolis	IL	39.125573	-88.45609
61014	Chadwick	IL	41.97068	-89.87508
60660	Chicago	IL	41.990631	-87.6667
62365	Plainville	IL	39.795818	-91.16751
62827	Crossville	IL	38.160972	-88.03291
62895	Wayne City	IL	38.34239	-88.58448
62670	New Berlin	IL	39.735761	-89.88669
61050	McConnell	IL	42.4447	-89.72708
60195	Schaumburg	IL	42.067809	-88.10828
60551	Sheridan	IL	41.527585	-88.68292
61071	Rock Falls	IL	41.759473	-89.69452
62512	Beason	IL	40.139482	-89.2073
62959	Marion	IL	37.724504	-88.92968
62675	Petersburg	IL	40.008726	-89.85029
61776	Towanda	IL	40.574936	-88.88696
60094	Palatine	IL	41.811929	-87.68732
60942	Hoopeston	IL	40.465869	-87.66766
62062	Maryville	IL	38.726548	-89.9572
62338	Fowler	IL	39.98152	-91.25754
61561	Roanoke	IL	40.795911	-89.19419
62824	Clay City	IL	38.689663	-88.35141
61240	Coal Valley	IL	41.439784	-90.428
60123	Elgin	IL	42.034776	-88.32393
61937	Lovington	IL	39.724744	-88.62995
60159	Schaumburg	IL	41.811929	-87.68732
61774	Stanford	IL	40.426186	-89.2107
62876	Radom	IL	38.282464	-89.19356
60412	Chicago Heights	IL	41.811929	-87.68732
61048	Lena	IL	42.381064	-89.83062
61256	Hampton	IL	41.554666	-90.40987
62086	Sorento	IL	38.996375	-89.57044
62284	Smithboro	IL	38.887748	-89.32248
60149	Dement	IL	41.964197	-88.951205
62857	Loogootee	IL	38.911662	-88.87747
62708	Springfield	IL	39.806089	-89.586356
62898	Woodlawn	IL	38.335675	-89.04867
62944	Hamletsburg	IL	37.333591	-88.561428
60913	Bonfield	IL	41.147958	-88.06412
61850	Indianola	IL	39.92804	-87.73629
61465	New Windsor	IL	41.200936	-90.45631
61925	Dalton City	IL	39.719012	-88.82227
61442	Keithsburg	IL	41.092081	-90.92743
62325	Coatsburg	IL	40.034398	-91.16278
62880	Saint Peter	IL	38.875494	-88.89365
61824	Champaign	IL	40.139946	-88.196102
62351	Mendon	IL	40.094396	-91.26558
61070	Rock City	IL	42.407384	-89.46228
61471	Raritan	IL	40.696535	-90.82607
60434	Joliet	IL	41.52543	-88.084208
62454	Robinson	IL	39.004728	-87.7495
60514	Clarendon Hills	IL	41.779533	-87.95798
61415	Avon	IL	40.661165	-90.43908
61826	Champaign	IL	40.113139	-88.361251
60527	Hinsdale	IL	41.839679	-88.088716
61539	Kingston Mines	IL	40.558329	-89.76891
62046	Hamel	IL	38.889879	-89.84638
62088	Staunton	IL	39.011612	-89.78855
62707	Springfield	IL	39.757896	-89.66363
62881	Salem	IL	38.623789	-88.95361
61081	Sterling	IL	41.813776	-89.70537
62671	New Holland	IL	40.186852	-89.56053
61112	Rockford	IL	42.245596	-88.97586
61533	Glasford	IL	40.577778	-89.8297
60109	Burlington	IL	42.052112	-88.54829
61814	Bismarck	IL	40.231345	-87.58163
60541	Newark	IL	41.529433	-88.53552
60945	Iroquois	IL	40.827011	-87.58356
61473	Roseville	IL	40.70595	-90.65724
60548	Sandwich	IL	41.645393	-88.63052
62553	Oconee	IL	39.279357	-89.10462
60941	Herscher	IL	41.05113	-88.08957
62245	Germantown	IL	38.554515	-89.5631
62769	Springfield	IL	39.749457	-89.606017
61769	Saunemin	IL	40.885397	-88.39957
61044	Kent	IL	42.320303	-89.91237
62677	Pleasant Plains	IL	39.847253	-89.88059
62926	Dongola	IL	37.363981	-89.15783
60038	Palatine	IL	42.097976	-88.014072
60572	Aurora	IL	41.839679	-88.088716
61430	East Galesburg	IL	40.94399	-90.31205
61884	White Heath	IL	40.10311	-88.49744
62440	Lerna	IL	39.393267	-88.28118
61584	Vermont	IL	40.288318	-90.429294
61413	Alpha	IL	41.189123	-90.36813
61448	Knoxville	IL	40.910079	-90.27171
60615	Chicago	IL	41.801525	-87.60215
60949	Ludlow	IL	40.375602	-88.11524
62275	Pocahontas	IL	38.812744	-89.54888
60476	Thornton	IL	41.570384	-87.60839
61001	Apple River	IL	42.472458	-90.12098
60920	Campus	IL	41.024846	-88.30797
60072	Ringwood	IL	42.405464	-88.30274
60453	Oak Lawn	IL	41.715082	-87.7546
61277	Prophetstown	IL	41.612038	-89.93036
62861	Maunie	IL	38.032574	-88.04663
61653	Peoria	IL	40.744179	-89.718401
61724	Bellflower	IL	40.336763	-88.52604
62095	Wood River	IL	38.860447	-90.09418
60552	Somonauk	IL	41.645998	-88.69
61519	Bryant	IL	40.466397	-90.09632
60901	Kankakee	IL	41.114132	-87.86784
61262	Lynn Center	IL	41.28595	-90.36117
62941	Grand Chain	IL	37.239385	-88.95184
61628	Peoria	IL	40.744179	-89.718401
61733	Deer Creek	IL	40.615875	-89.32778
61771	Secor	IL	40.738973	-89.13579
62902	Carbondale	IL	37.758646	-89.415831
60621	Chicago	IL	41.776983	-87.6404
62313	Basco	IL	40.319528	-91.20483
62622	Bluff Springs	IL	39.979614	-90.352444
62635	Emden	IL	40.291512	-89.47436
60189	Wheaton	IL	41.839679	-88.088716
60612	Chicago	IL	41.880682	-87.6877
61486	Viola	IL	41.195087	-90.57923
61613	Peoria	IL	40.742537	-89.627948
60675	Chicago	IL	41.811929	-87.68732
62996	Villa Ridge	IL	37.152714	-89.1632
60619	Chicago	IL	41.744834	-87.60444
61125	Rockford	IL	42.325364	-89.170527
61536	Hanna City	IL	40.690205	-89.78042
62363	Pittsfield	IL	39.606349	-90.78642
62985	Simpson	IL	37.458878	-88.69466
62879	Sailor Springs	IL	38.764802	-88.35875
62367	Plymouth	IL	40.304799	-90.88699
62630	Chesterfield	IL	39.260146	-90.06937
62849	Iuka	IL	38.594744	-88.77464
61016	Cherry Valley	IL	42.222221	-88.9543
62271	Okawville	IL	38.439574	-89.5286
62444	Mode	IL	39.272317	-88.75932
62648	Herrin	IL	37.803216	-89.058643
62628	Chapin	IL	39.770936	-90.39307
60446	Romeoville	IL	41.64273	-88.09934
61332	Leonore	IL	41.190024	-88.98238
60047	Lake Zurich	IL	42.199957	-88.05859
62250	Hoffman	IL	38.540238	-89.26294
61489	Williamsfield	IL	40.929497	-90.01888
62805	Akin	IL	37.994296	-88.941665
60005	Arlington Heights	IL	42.069327	-87.98464
60073	Round Lake	IL	42.366253	-88.09647
61051	Milledgeville	IL	41.965904	-89.75896
61368	Tiskilwa	IL	41.279825	-89.50492
61913	Atwood	IL	39.809929	-88.45309
60180	Union	IL	42.229437	-88.52606
61063	Pecatonica	IL	42.307665	-89.34453
62652	Milton	IL	39.564228	-90.651349
62537	Harristown	IL	39.867151	-89.11324
61064	Polo	IL	41.989386	-89.59084
62246	Greenville	IL	38.889355	-89.40987
62830	Dix	IL	38.441538	-88.96888
60630	Chicago	IL	41.971044	-87.75869
60967	Stockland	IL	40.613942	-87.59259
61030	Forreston	IL	42.119619	-89.58242
61640	Peoria	IL	40.785653	-89.617657
60687	Chicago	IL	41.811929	-87.68732
62051	Irving	IL	39.205747	-89.40909
60506	Aurora	IL	41.766029	-88.35254
60669	Chicago	IL	41.811929	-87.68732
62946	Harrisburg	IL	37.725834	-88.54208
61929	Hammond	IL	39.806718	-88.6087
62359	Paloma	IL	40.028595	-91.21286
62988	Tamms	IL	37.240381	-89.28271
62534	Findlay	IL	39.529092	-88.7821
60952	Melvin	IL	40.562833	-88.25053
60707	Elmwood Park	IL	41.922681	-87.80805
60128	Carol Stream	IL	41.839679	-88.088716
60706	Harwood Heights	IL	41.96418	-87.81686
62875	Patoka	IL	38.751756	-89.09581
62045	Hamburg	IL	39.236358	-90.71359
60095	Palatine	IL	41.811929	-87.68732
62023	Eagarville	IL	39.110422	-89.78428
60441	Lockport	IL	41.598235	-88.02753
60462	Orland Park	IL	41.623532	-87.83542
61725	Carlock	IL	40.600045	-89.13627
62026	Edwardsville	IL	38.733748	-89.94305
62533	Farmersville	IL	39.442669	-89.64068
60463	Palos Heights	IL	41.663548	-87.79148
62558	Pawnee	IL	39.580159	-89.54402
62633	Easton	IL	40.214759	-89.87721
60208	Evanston	IL	42.058629	-87.684506
60513	Brookfield	IL	41.822681	-87.84753
60673	Chicago	IL	41.811929	-87.68732
61571	Washington	IL	40.701037	-89.44294
61932	Hume	IL	39.797661	-87.87017
60655	Chicago	IL	41.696283	-87.69912
61114	Rockford	IL	42.306666	-89.00839
61274	Osco	IL	41.372408	-90.27031
62316	Bowen	IL	40.232385	-91.05746
60421	Elwood	IL	41.429681	-88.10284
61079	Shirland	IL	42.325364	-89.170527
62345	Kinderhook	IL	39.700245	-91.14564
61955	Vermilion	IL	39.679882	-87.750216
62283	Shattuc	IL	38.647775	-89.20166
62565	Shelbyville	IL	39.409126	-88.80153
62889	Texico	IL	38.455562	-88.8232
62517	Bulpitt	IL	39.591537	-89.42755
62660	Literberry	IL	39.858933	-90.200747
62899	Xenia	IL	38.661358	-88.64744
61817	Catlin	IL	40.059068	-87.70376
60170	Plato Center	IL	42.025776	-88.425931
60111	Clare	IL	41.998231	-88.84223
60641	Chicago	IL	41.946431	-87.74576
62356	New Canton	IL	39.599949	-91.09115
62933	Energy	IL	37.774517	-89.02583
61031	Franklin Grove	IL	41.84036	-89.31176
61265	Moline	IL	41.490333	-90.50006
61641	Peoria	IL	40.640002	-89.651987
62254	Lebanon	IL	38.601648	-89.81317
62295	Valmeyer	IL	38.299904	-90.30833
62428	Greenup	IL	39.25287	-88.13528
61755	Mackinaw	IL	40.533634	-89.34345
62418	Brownstown	IL	39.018987	-88.96134
62995	Vienna	IL	37.422815	-88.88016
60106	Bensenville	IL	41.956479	-87.95117
62288	Steeleville	IL	38.002188	-89.66723
60093	Winnetka	IL	42.104127	-87.75016
60679	Chicago	IL	41.811929	-87.68732
61236	Barstow	IL	41.518317	-90.35597
61371	Triumph	IL	41.499089	-89.021881
61637	Peoria	IL	40.702487	-89.589797
61367	Sublette	IL	41.638122	-89.26889
61864	Philo	IL	39.989282	-88.15174
61322	Depue	IL	41.321814	-89.3086
60173	Schaumburg	IL	42.051927	-88.04814
61656	Peoria	IL	40.744179	-89.718401
62234	Collinsville	IL	38.679282	-89.99407
62884	Sesser	IL	38.085829	-89.04697
60098	Woodstock	IL	42.316121	-88.43884
62976	Pulaski	IL	37.214012	-89.21039
60626	Chicago	IL	42.009731	-87.66938
62054	Kane	IL	39.192501	-90.34541
60643	Chicago	IL	41.696433	-87.65993
61863	Pesotum	IL	39.907919	-88.27977
62831	Du Bois	IL	38.22669	-89.20884
60454	Oak Lawn	IL	41.811929	-87.68732
61791	Bloomington	IL	40.519236	-88.864303
62922	Creal Springs	IL	37.613705	-88.83922
61434	Galva	IL	41.172197	-90.03901
61532	Forest City	IL	40.35756	-89.82389
61875	Seymour	IL	40.107548	-88.42487
60456	Hometown	IL	41.730533	-87.73198
61752	Le Roy	IL	40.345004	-88.75786
62362	Perry	IL	39.781349	-90.74617
62423	Dennison	IL	39.452478	-87.57092
62764	Springfield	IL	39.749457	-89.606017
60656	Chicago	IL	41.97508	-87.8163
62318	Burnside	IL	40.513153	-91.12851
60177	South Elgin	IL	41.99215	-88.30609
60464	Palos Park	IL	41.664582	-87.84378
61602	Peoria	IL	40.677987	-89.60864
60130	Forest Park	IL	41.871331	-87.81235
62473	Watson	IL	39.012089	-88.56383
61847	Gifford	IL	40.310063	-88.01922
61011	Caledonia	IL	42.376423	-88.9325
62519	Cornland	IL	39.936817	-89.40159
62555	Owaneco	IL	39.476356	-89.21607
62642	Greenview	IL	40.087711	-89.72066
61526	Edelstein	IL	40.936244	-89.62
62962	Miller City	IL	37.097546	-89.33547
62216	Aviston	IL	38.607817	-89.60516
60693	Chicago	IL	42.096428	-87.71791
60953	Milford	IL	40.624025	-87.69618
61550	Morton	IL	40.613788	-89.46031
62085	Sawyerville	IL	39.078047	-89.80626
62993	Unity	IL	37.150263	-89.27351
60429	Hazel Crest	IL	41.574034	-87.67857
61612	Peoria	IL	40.744179	-89.718401
60481	Wilmington	IL	41.298186	-88.1464
62910	Brookport	IL	37.140282	-88.58186
60448	Mokena	IL	41.536782	-87.88582
62888	Tamaroa	IL	38.127516	-89.22926
60950	Manteno	IL	41.250408	-87.85125
62071	National Stock Yards	IL	38.6516	-90.163909
60199	Carol Stream	IL	41.839679	-88.088716
60079	Waukegan	IL	42.322814	-87.610053
60561	Darien	IL	41.745623	-87.98108
61534	Green Valley	IL	40.40943	-89.65687
62214	Addieville	IL	38.377193	-89.55998
60022	Glencoe	IL	42.130976	-87.76252
60034	Hebron	IL	42.468318	-88.43125
61057	Nachusa	IL	41.830896	-89.39613
62883	Scheller	IL	38.164136	-89.11908
60104	Bellwood	IL	41.882924	-87.87642
60176	Schiller Park	IL	41.95683	-87.87193
61790	Normal	IL	40.51032	-88.99803
62833	Ellery	IL	38.361654	-88.16484
60112	Cortland	IL	41.921121	-88.6899
60436	Joliet	IL	41.50798	-88.10553
60437	Kinsman	IL	41.168761	-88.55792
61028	Elizabeth	IL	42.298773	-90.17778
61089	Winslow	IL	42.475078	-89.81607
62629	Chatham	IL	39.676558	-89.69902
60144	Kaneville	IL	41.936977	-88.420178
60409	Calumet City	IL	41.614188	-87.54638
62949	Hurst	IL	37.835684	-89.14346
62446	Mount Erie	IL	38.48679	-88.21636
61065	Poplar Grove	IL	42.364394	-88.84665
62572	Waggoner	IL	39.370091	-89.67132
60804	Cicero	IL	41.844382	-87.7599
61201	Rock Island	IL	41.4903	-90.56956
60636	Chicago	IL	41.776633	-87.66854
60657	Chicago	IL	41.940832	-87.65852
61501	Astoria	IL	40.234249	-90.32941
61576	Richland	IL	40.928331	-89.348163
62433	Hutsonville	IL	39.113033	-87.67563
61634	Peoria	IL	40.689637	-89.592597
62612	Ashland	IL	39.891861	-90.03125
61067	Ridott	IL	42.298218	-89.47652
61006	Ashton	IL	41.865034	-89.21536
61317	Cherry	IL	41.4276	-89.21243
60175	Saint Charles	IL	41.944577	-88.38326
60523	Oak Brook	IL	41.837716	-87.96041
60618	Chicago	IL	41.945681	-87.7048
60677	Chicago	IL	41.811929	-87.68732
60963	Rossville	IL	40.372447	-87.6603
62249	Highland	IL	38.752017	-89.67478
62863	Mount Carmel	IL	38.415676	-87.81077
60049	Long Grove	IL	42.198674	-88.041875
61013	Cedarville	IL	42.375078	-89.63382
61252	Fulton	IL	41.863049	-90.14524
62535	Forsyth	IL	39.925806	-88.95928
60628	Chicago	IL	41.695434	-87.62255
62809	Barnhill	IL	38.268959	-88.34267
61264	Milan	IL	41.426583	-90.57639
61433	Fiatt	IL	40.449305	-90.161761
62082	Roodhouse	IL	39.481469	-90.33999
62263	Nashville	IL	38.346578	-89.38453
60097	Wonder Lake	IL	42.384504	-88.3495
62982	Rosiclare	IL	37.426076	-88.34815
61439	Henderson	IL	41.02572	-90.35566
62570	Tovey	IL	39.588585	-89.44945
61036	Galena	IL	42.400744	-90.39738
62686	Standard City	IL	39.350726	-89.78689
60608	Chicago	IL	41.850532	-87.6699
60653	Chicago	IL	41.819833	-87.61269
61846	Georgetown	IL	39.97412	-87.63138
60959	Piper City	IL	40.779834	-88.18012
62323	Chambersburg	IL	39.817702	-90.66923
60714	Niles	IL	42.032379	-87.81563
60050	Mchenry	IL	42.348406	-88.24769
61364	Streator	IL	41.129482	-88.83666
62070	Mozier	IL	39.328077	-90.76896
60685	Chicago	IL	41.811929	-87.68732
61454	Lomax	IL	40.685436	-91.05207
62030	Fidelity	IL	39.155608	-90.1649
60614	Chicago	IL	41.922682	-87.65432
61874	Savoy	IL	40.061694	-88.25023
61610	Creve Coeur	IL	40.643846	-89.59908
60973	Wellington	IL	40.543697	-87.66475
62452	Parkersburg	IL	38.588301	-88.03692
62701	Springfield	IL	39.80095	-89.64999
61103	Rockford	IL	42.303365	-89.08246
61704	Bloomington	IL	40.459584	-88.96939
62661	Loami	IL	39.669508	-89.84805
62853	Kell	IL	38.516025	-88.91954
60043	Kenilworth	IL	42.088128	-87.716
60477	Tinley Park	IL	41.5738	-87.80389
61316	Cedar Point	IL	41.261853	-89.12523
62466	Sumner	IL	38.732726	-87.85152
62461	Shumway	IL	39.194021	-88.6656
62261	Modoc	IL	37.988745	-90.00785
62521	Decatur	IL	39.828586	-88.92907
60447	Minooka	IL	41.473553	-88.29167
62912	Buncombe	IL	37.477639	-89.02992
61754	McLean	IL	40.321811	-89.15864
62424	Dieterich	IL	39.01077	-88.428
62721	Springfield	IL	39.749457	-89.606017
61345	Neponset	IL	41.280262	-89.79442
62078	Patterson	IL	39.477337	-90.48002
62278	Red Bud	IL	38.214515	-89.98785
62840	Frankfort Heights	IL	37.994296	-88.941665
60472	Robbins	IL	41.642933	-87.70814
60450	Morris	IL	41.370642	-88.40749
60664	Chicago	IL	41.811929	-87.68732
61438	Good Hope	IL	40.579737	-90.64691
62568	Taylorville	IL	39.548928	-89.29692
62868	Noble	IL	38.696562	-88.23716
60056	Mount Prospect	IL	42.065427	-87.93621
62967	New Burnside	IL	37.582136	-88.76394
62297	Walsh	IL	38.049616	-89.80775
62828	Dahlgren	IL	38.190536	-88.62439
60948	Loda	IL	40.526477	-88.0821
60968	Thawville	IL	40.6756	-88.10761
61849	Homer	IL	40.028716	-87.9576
60932	East Lynn	IL	40.465251	-87.80112
60188	Carol Stream	IL	41.918578	-88.13688
60092	Libertyville	IL	42.322814	-87.610053
60911	Ashkum	IL	40.883641	-87.9667
61458	Maquon	IL	40.776079	-90.1938
61477	Smithfield	IL	40.500643	-90.31576
62394	Equality	IL	37.726738	-88.372434
62834	Emma	IL	37.97622	-88.120182
61878	Thomasboro	IL	40.243692	-88.17296
62281	Saint Jacob	IL	38.706847	-89.77739
62414	Beecher City	IL	39.167788	-88.8255
62901	Carbondale	IL	37.707763	-89.19246
62265	New Baden	IL	38.520285	-89.6807
61440	Industry	IL	40.324365	-90.60351
61931	Humboldt	IL	39.59477	-88.34792
61738	El Paso	IL	40.731662	-89.03978
61475	Sciota	IL	40.581413	-90.7612
62530	Divernon	IL	39.568077	-89.65467
62943	Grantsburg	IL	37.342538	-88.73381
61102	Rockford	IL	42.25517	-89.1297
61523	Chillicothe	IL	40.914377	-89.50654
62076	Ohlman	IL	39.261791	-89.421584
61564	South Pekin	IL	40.49271	-89.65194
61234	Annawan	IL	41.412944	-89.92236
61739	Fairbury	IL	40.741158	-88.51546
61815	Bondville	IL	40.112616	-88.3708
62854	Kinmundy	IL	38.768452	-88.82814
62264	New Athens	IL	38.318253	-89.88852
62756	Springfield	IL	39.749457	-89.606017
61469	Oquawka	IL	40.957929	-90.93608
61858	Oakwood	IL	40.121098	-87.74657
60154	Westchester	IL	41.851257	-87.88351
61764	Pontiac	IL	40.884053	-88.63376
61452	Littleton	IL	40.249363	-90.66845
62552	Oakley	IL	39.869841	-88.81261
62964	Mounds	IL	37.119739	-89.20174
60046	Lake Villa	IL	42.410687	-88.05462
62617	Bath	IL	40.167991	-90.16313
61801	Urbana	IL	40.109647	-88.21246
61956	Villa Grove	IL	39.858506	-88.15018
62410	Allendale	IL	38.528202	-87.72913
61524	Dunfermline	IL	40.490965	-90.03285
62352	Milton	IL	39.563599	-90.64813
62969	Olive Branch	IL	37.159227	-89.34153
61917	Brocton	IL	39.706131	-87.91691
62312	Barry	IL	39.704649	-91.0368
61636	Peoria	IL	40.699937	-89.595147
61912	Ashmore	IL	39.529566	-88.03349
62097	Worden	IL	38.932347	-89.84608
62353	Mount Sterling	IL	39.983824	-90.74134
61349	Ohio	IL	41.543342	-89.44078
61024	Durand	IL	42.436585	-89.30394
61363	Standard	IL	41.25645	-89.17901
62436	Jewett	IL	39.190088	-88.2601
61346	New Bedford	IL	41.513879	-89.71842
61740	Flanagan	IL	40.882858	-88.85739
62203	East Saint Louis	IL	38.598175	-90.07575
60445	Midlothian	IL	41.631683	-87.73309
60002	Antioch	IL	42.46617	-88.09995
62015	Butler	IL	39.212833	-89.55969
61605	Peoria	IL	40.678037	-89.62737
61831	Collison	IL	40.2159	-87.78418
61019	Davis	IL	42.440374	-89.40925
60550	Shabbona	IL	41.769322	-88.86858
61834	Danville	IL	40.175463	-87.6124
62762	Springfield	IL	39.749457	-89.606017
62992	Ullin	IL	37.272477	-89.17123
62207	East Saint Louis	IL	38.59035	-90.13276
62375	Timewell	IL	39.983573	-90.8842
60607	Chicago	IL	41.875882	-87.65114
61046	Lanark	IL	42.111421	-89.82436
62222	Belleville	IL	38.439983	-89.983521
61331	Lee Center	IL	41.747471	-89.27713
62990	Thebes	IL	37.223589	-89.42243
60648	Peotone	IL	41.335445	-87.785286
60659	Chicago	IL	41.991381	-87.70378
60665	Chicago	IL	41.811929	-87.68732
61025	East Dubuque	IL	42.483971	-90.58945
61675	Carlock	IL	40.582108	-89.128871
61723	Atlanta	IL	40.256893	-89.25013
62914	Cairo	IL	37.025325	-89.18974
61813	Bement	IL	39.918042	-88.56139
62952	Jonesboro	IL	37.42084	-89.31217
60077	Skokie	IL	42.033313	-87.75764
60096	Winthrop Harbor	IL	42.48067	-87.83018
60482	Worth	IL	41.688827	-87.79265
62979	Ridgway	IL	37.796784	-88.24393
60598	Aurora	IL	41.839679	-88.088716
62022	Dow	IL	38.997296	-90.3405
62339	Golden	IL	40.112726	-91.02632
60470	Ransom	IL	41.169068	-88.6494
61607	Peoria	IL	40.642049	-89.67147
61073	Roscoe	IL	42.419097	-89.00407
61825	Champaign	IL	40.139946	-88.196102
60055	Palatine	IL	42.097976	-88.014072
62682	San Jose	IL	40.29916	-89.60101
60955	Onarga	IL	40.706634	-87.99624
61951	Sullivan	IL	39.582494	-88.6021
62434	Ingraham	IL	38.835884	-88.33505
60531	Leland	IL	41.620636	-88.78895
60631	Chicago	IL	41.99623	-87.81091
62282	Saint Libory	IL	38.363228	-89.713921
62355	Nebo	IL	39.440654	-90.77809
60566	Naperville	IL	41.839679	-88.088716
60672	Chicago	IL	41.811929	-87.68732
60964	Saint Anne	IL	41.045785	-87.68963
62927	Dowell	IL	37.940448	-89.24091
60010	Barrington	IL	42.160791	-88.15231
61251	Fenton	IL	41.738551	-90.06922
61455	Macomb	IL	40.456986	-90.6681
62013	Brussels	IL	38.968323	-90.58121
62232	Caseyville	IL	38.636749	-90.01763
60402	Berwyn	IL	41.836981	-87.79095
62550	Moweaqua	IL	39.617542	-89.00559
60107	Streamwood	IL	42.023977	-88.17657
60701	Chicago	IL	41.811929	-87.68732
61856	Monticello	IL	40.0334	-88.57375
62477	West Union	IL	39.229885	-87.6664
61372	Troy Grove	IL	41.466102	-89.07794
60148	Lombard	IL	41.875429	-88.01723
60910	Aroma Park	IL	41.078981	-87.80536
61701	Bloomington	IL	40.477286	-88.99592
61313	Blackstone	IL	41.064946	-88.66836
61942	Newman	IL	39.802798	-87.99744
61320	Dalzell	IL	41.350864	-89.17366
60517	Woodridge	IL	41.75253	-88.04864
61080	South Beloit	IL	42.484835	-89.02756
61402	Galesburg	IL	40.932207	-90.214412
62336	Ferris	IL	40.467994	-91.17125
60020	Fox Lake	IL	42.409445	-88.17822
60089	Buffalo Grove	IL	42.167638	-87.96393
60131	Franklin Park	IL	41.93548	-87.87468
60415	Chicago Ridge	IL	41.702482	-87.77869
60570	Hinsdale	IL	41.839679	-88.088716
61061	Oregon	IL	42.00663	-89.33932
62260	Millstadt	IL	38.463718	-90.09831
62343	Hull	IL	39.709855	-91.22914
62761	Springfield	IL	39.852361	-89.541017
62852	Keensburg	IL	38.351613	-87.86464
62907	Ava	IL	37.871546	-89.50721
61126	Rockford	IL	42.325364	-89.170527
60410	Channahon	IL	41.439518	-88.20898
62885	Shobonier	IL	38.859515	-89.054
61047	Leaf River	IL	42.139244	-89.3968
60305	River Forest	IL	41.893031	-87.81718
62556	Palmer	IL	39.465887	-89.39095
62702	Springfield	IL	39.819	-89.64379
60080	Solon Mills	IL	42.442519	-88.276047
62059	Lovejoy	IL	38.6565	-90.16643
61202	Rock Island	IL	41.466752	-90.58714
62858	Louisville	IL	38.806292	-88.48012
61517	Brimfield	IL	40.816162	-89.84131
60406	Blue Island	IL	41.656592	-87.68154
60303	Oak Park	IL	41.811929	-87.68732
61919	Camargo	IL	39.783794	-88.13861
60632	Chicago	IL	41.809299	-87.7105
62241	Ellis Grove	IL	38.011729	-89.89007
60603	Chicago	IL	41.880446	-87.63014
61418	Biggsville	IL	40.854865	-90.85925
62573	Warrensburg	IL	39.940934	-89.06707
62451	Palestine	IL	39.006924	-87.6117
62044	Greenfield	IL	39.362285	-90.22147
62915	Cambria	IL	37.782057	-89.12184
62221	Belleville	IL	38.532311	-89.93996
62380	West Point	IL	40.233504	-91.19727
61567	Topeka	IL	40.340202	-89.90929
62801	Centralia	IL	38.523736	-89.1257
61076	Scioto Mills	IL	42.355422	-89.667939
62716	Springfield	IL	39.848201	-89.536369
60082	Techny	IL	42.116377	-87.812064
62684	Sherman	IL	39.901588	-89.58805
61457	Lee	IL	40.553989	-90.355505
62532	Elwin	IL	39.777583	-88.97972
62916	Campbell Hill	IL	37.933269	-89.55501
60540	Naperville	IL	41.764779	-88.14579
61710	Bloomington	IL	40.477735	-88.954174
60165	Stone Park	IL	41.90158	-87.88046
61570	Washburn	IL	40.920631	-89.29547
60053	Morton Grove	IL	42.041999	-87.78882
60430	Homewood	IL	41.556734	-87.66464
62848	Irvington	IL	38.436236	-89.16184
61451	Laura	IL	40.953365	-89.94259
61735	Dewitt	IL	40.193547	-88.79575
62681	Rushville	IL	40.134957	-90.55222
60933	Elliott	IL	40.465744	-88.26994
61443	Kewanee	IL	41.247536	-89.92848
61709	Bloomington	IL	40.461431	-88.953015
61772	Shirley	IL	40.399689	-89.06088
62948	Herrin	IL	37.804014	-89.02702
62523	Decatur	IL	39.844086	-88.95327
62703	Springfield	IL	39.7715	-89.63612
62298	Waterloo	IL	38.325969	-90.14606
60192	Schaumburg	IL	42.065827	-88.21399
62955	Karbers Ridge	IL	37.500757	-88.238292
61053	Mount Carroll	IL	42.1009	-89.98255
61873	Saint Joseph	IL	40.124202	-88.03401
60560	Yorkville	IL	41.631342	-88.43996
61565	Sparland	IL	41.036199	-89.48336
60060	Mundelein	IL	42.263623	-88.01172
61643	Peoria	IL	40.744179	-89.718401
61773	Sibley	IL	40.584937	-88.38028
62084	Roxana	IL	38.8494	-90.08536
62445	Montrose	IL	39.183055	-88.3404
62822	Christopher	IL	37.973175	-89.05291
62469	Trilla	IL	39.35239	-88.33275
60613	Chicago	IL	41.953256	-87.6629
62808	Ashley	IL	38.319427	-89.19145
62841	Freeman Spur	IL	37.80308	-89.009201
60198	Carol Stream	IL	41.839679	-88.088716
62294	Troy	IL	38.725498	-89.88891
62518	Chestnut	IL	40.05232	-89.18832
60512	Bristol	IL	41.706034	-88.41296
62860	Macedonia	IL	38.041978	-88.73257
62722	Springfield	IL	39.749457	-89.606017
61604	Peoria	IL	40.709237	-89.63633
61811	Alvin	IL	40.293159	-87.61401
61558	Pekin	IL	40.554538	-89.609951
61242	Cordova	IL	41.697188	-90.30177
62704	Springfield	IL	39.7778	-89.67982
60074	Palatine	IL	42.143819	-88.02546
62269	O Fallon	IL	38.589849	-89.91207
60559	Westmont	IL	41.795358	-87.97778
61015	Chana	IL	41.982993	-89.2128
61263	Matherville	IL	41.260255	-90.60587
62040	Granite City	IL	38.720938	-90.11431
62845	Herald	IL	38.073931	-88.142657
62009	Benld	IL	39.092526	-89.8029
61447	Kirkwood	IL	40.867285	-90.75759
60127	Milton	IL	41.878878	-88.134469
60629	Chicago	IL	41.777482	-87.71155
60554	Sugar Grove	IL	41.779939	-88.45183
62003	Medora	IL	39.177478	-90.142329
62280	Rockwood	IL	37.845454	-89.66878
61314	Buda	IL	41.310471	-89.67662
61651	Peoria	IL	40.744179	-89.718401
60083	Wadsworth	IL	42.428187	-87.92935
60150	Malta	IL	41.933061	-88.88293
62963	Mound City	IL	37.08751	-89.16532
62011	Bingham	IL	39.11204	-89.2134
60827	Riverdale	IL	41.649717	-87.63292
62666	Middletown	IL	40.088774	-89.56744
60015	Deerfield	IL	42.169325	-87.86556
60122	Elgin	IL	42.067101	-88.304994
62279	Renault	IL	38.153322	-90.13459
62892	Vernon	IL	38.804938	-89.08366
62720	Springfield	IL	39.749457	-89.606017
62807	Alma	IL	38.735571	-88.91864
62893	Walnut Hill	IL	38.469244	-89.03707
61537	Henry	IL	41.113829	-89.38486
60078	Palatine	IL	41.811929	-87.68732
61008	Belvidere	IL	42.257229	-88.84755
62215	Albers	IL	38.517125	-89.60258
60692	Chicago	IL	41.867532	-87.672553
62859	McLeansboro	IL	38.090004	-88.53431
60040	Highwood	IL	42.205724	-87.81421
60424	Gardner	IL	41.174117	-88.30954
60934	Emington	IL	40.966528	-88.34937
61614	Peoria	IL	40.755343	-89.59799
61424	Camp Grove	IL	41.073398	-89.63015
60917	Buckingham	IL	41.04699	-88.18649
62204	East Saint Louis	IL	38.631383	-90.10008
62867	New Haven	IL	37.914363	-88.12264
62803	Hoyleton	IL	38.460331	-89.30296
61091	Woosung	IL	41.905844	-89.54255
61084	Stillman Valley	IL	42.112207	-89.18633
62953	Joppa	IL	37.20812	-88.84304
61417	Berwick	IL	40.781504	-90.52901
61130	Loves Park	IL	42.325364	-89.170527
61845	Foosland	IL	40.376141	-88.4135
60639	Chicago	IL	41.921431	-87.75415
62443	Mason	IL	38.95232	-88.62883
62471	Vandalia	IL	38.961799	-89.10978
62567	Stonington	IL	39.638951	-89.18982
60209	Evanston	IL	42.04973	-87.679408
62474	Westfield	IL	39.4505	-87.99681
62777	Springfield	IL	39.749457	-89.606017
61257	Hillsdale	IL	41.590161	-90.20392
61449	La Fayette	IL	41.098764	-89.97361
62524	Decatur	IL	39.853981	-88.981511
62984	Shawneetown	IL	37.712847	-88.16553
60670	Chicago	IL	41.811929	-87.68732
61483	Toulon	IL	41.09638	-89.86649
61747	Hopedale	IL	40.422027	-89.42614
60171	River Grove	IL	41.92583	-87.84013
62501	Argenta	IL	39.984292	-88.81584
62890	Thompsonville	IL	37.913984	-88.74922
62905	Alto Pass	IL	37.571235	-89.33462
61337	Malden	IL	41.427282	-89.36622
62310	Adrian	IL	40.416145	-91.205805
62540	Kincaid	IL	39.58755	-89.41265
61639	Peoria	IL	40.709837	-89.563646
62480	Willow Hill	IL	38.994595	-88.00464
62531	Edinburg	IL	39.66363	-89.39224
61729	Congerville	IL	40.619306	-89.22353
60163	Berkeley	IL	41.886794	-87.91052
62481	Yale	IL	39.122158	-88.01982
60601	Chicago	IL	41.886456	-87.62325
62527	Decatur	IL	39.853981	-88.981511
62718	Springfield	IL	39.778044	-89.646555
62624	Browning	IL	40.153557	-90.35255
60114	Addison	IL	41.839679	-88.088716
60505	Aurora	IL	41.756129	-88.29699
61731	Cropsey	IL	40.607615	-88.49
61777	Wapella	IL	40.240627	-88.96635
60542	North Aurora	IL	41.809387	-88.32931
61842	Farmer City	IL	40.251945	-88.65279
60490	Bolingbrook	IL	41.684752	-88.14203
60645	Chicago	IL	42.008956	-87.69634
62627	Chandlerville	IL	40.051603	-90.14057
62664	Mason City	IL	40.200537	-89.70427
62838	Farina	IL	38.857185	-88.7591
60469	Posen	IL	41.628034	-87.68694
62935	Galatia	IL	37.836537	-88.62298
60511	Big Rock	IL	41.75537	-88.54865
61535	Groveland	IL	40.590353	-89.54053
62373	Sutter	IL	40.240004	-91.35197
62561	Riverton	IL	39.85973	-89.52972
60102	Algonquin	IL	42.17315	-88.31849
60419	Dolton	IL	41.626839	-87.59865
60458	Justice	IL	41.746432	-87.83557
61272	New Boston	IL	41.223984	-91.0123
62048	Hartford	IL	38.833898	-90.09533
60014	Crystal Lake	IL	42.226623	-88.33066
60135	Genoa	IL	42.10028	-88.6906
61732	Danvers	IL	40.528515	-89.19057
62019	Donnellson	IL	39.017877	-89.46415
62230	Breese	IL	38.620018	-89.5305
62618	Beardstown	IL	40.005505	-90.42314
61844	Fithian	IL	40.126299	-87.86871
62435	Janesville	IL	39.374287	-88.244487
62844	Grayville	IL	38.257064	-88.00353
61041	Hanover	IL	42.270426	-90.31077
62683	Scottville	IL	39.260862	-89.926068
62270	Dupo	IL	38.227604	-89.650381
62662	Lowder	IL	39.749457	-89.606017
61037	Galt	IL	41.788761	-89.76182
62426	Edgewood	IL	38.913064	-88.66404
62462	Sigel	IL	39.223922	-88.47715
60033	Harvard	IL	42.424338	-88.61431
62028	Elsah	IL	38.958848	-90.35383
60946	Kempton	IL	40.908942	-88.21304
60183	Wasco	IL	41.936977	-88.420178
60417	Crete	IL	41.439034	-87.61173
61361	Sheffield	IL	41.400837	-89.74444
61862	Penfield	IL	40.296282	-87.95553
62818	Browns	IL	38.378706	-87.97291
61027	Eleroy	IL	42.332038	-89.761171
61766	Towanda	IL	40.564323	-88.898663
62037	Grafton	IL	38.985138	-90.44563
62427	Flat Rock	IL	38.869453	-87.66502
61341	Marseilles	IL	41.336202	-88.69727
61876	Sidell	IL	39.907331	-87.82587
62525	Decatur	IL	39.853981	-88.981511
61877	Sidney	IL	40.004053	-88.07693
60071	Richmond	IL	42.464639	-88.3028
60461	Olympia Fields	IL	41.51829	-87.69274
60522	Hinsdale	IL	41.839679	-88.088716
60622	Chicago	IL	41.900332	-87.66927
61333	Long Point	IL	40.990965	-88.88278
62965	Muddy	IL	37.801972	-88.548695
62906	Anna	IL	37.457806	-89.21408
61644	Peoria	IL	40.765301	-89.569207
60479	Verona	IL	41.231718	-88.52659
61936	La Place	IL	39.800512	-88.71835
60065	Northbrook	IL	41.811929	-87.68732
61412	Alexis	IL	41.067549	-90.57994
62689	Thayer	IL	39.539071	-89.761
60172	Roselle	IL	41.980761	-88.08704
60563	Naperville	IL	41.794885	-88.16188
61342	Mendota	IL	41.543149	-89.10696
62239	Dupo	IL	38.526792	-90.19253
62262	Mulberry Grove	IL	38.931719	-89.27132
62862	Mill Shoals	IL	38.219997	-88.3121
60039	Crystal Lake	IL	42.324761	-88.452481
60625	Chicago	IL	41.971614	-87.70256
61743	Graymont	IL	40.877451	-88.7778
60145	Kingston	IL	42.102014	-88.76647
62536	Glenarm	IL	39.642083	-89.65936
60536	Millbrook	IL	41.598631	-88.55317
60564	Naperville	IL	41.707118	-88.19634
61104	Rockford	IL	42.25537	-89.07602
62293	Trenton	IL	38.611798	-89.67691
62971	Oraville	IL	37.758646	-89.415831
60649	Chicago	IL	41.761734	-87.57072
60929	Cullom	IL	40.873	-88.28676
61432	Fairview	IL	40.642927	-90.17174
60567	Naperville	IL	41.839679	-88.088716
60460	Odell	IL	41.00148	-88.52981
61068	Rochelle	IL	41.935139	-89.06891
60435	Joliet	IL	41.54338	-88.11963
61516	Benson	IL	40.850381	-89.11878
61560	Putnam	IL	41.198061	-89.43131
61843	Fisher	IL	40.313921	-88.3742
62311	Augusta	IL	40.223837	-90.93288
60157	Medinah	IL	41.970628	-88.05606
60449	Monee	IL	41.422555	-87.75531
62274	Pinckneyville	IL	38.078231	-89.38796
62546	Morrisonville	IL	39.430427	-89.44719
60091	Wilmette	IL	42.077178	-87.72373
61338	Manlius	IL	41.4547	-89.66966
61799	Bloomington	IL	40.488468	-88.939637
61547	Mapleton	IL	40.619174	-89.72628
60184	Wayne	IL	41.953427	-88.25176
60202	Evanston	IL	42.030327	-87.68828
62605	Emden	IL	40.300508	-89.480688
60674	Chicago	IL	41.811929	-87.68732
61377	Wenona	IL	41.057649	-89.04788
61569	Trivoli	IL	40.691022	-89.89138
62835	Enfield	IL	38.101667	-88.33357
61482	Table Grove	IL	40.368358	-90.42469
61737	Ellsworth	IL	40.450325	-88.72052
62219	Beckemeyer	IL	38.605187	-89.43404
62644	Havana	IL	40.296415	-90.05163
62659	Lincoln'S New Salem	IL	40.031115	-89.786723
62825	Coello	IL	37.996241	-89.06852
61484	Vermont	IL	40.292388	-90.42833
62314	Baylis	IL	39.756139	-90.89509
62843	Golden Gate	IL	38.365545	-88.19454
62954	Junction	IL	37.703552	-88.26498
60081	Spring Grove	IL	42.441869	-88.22167
61812	Armstrong	IL	40.27363	-87.88919
60444	Mazon	IL	41.243419	-88.40325
60650	Chicago	IL	41.818682	-87.743454
61088	Winnebago	IL	42.271385	-89.25099
61259	Illinois City	IL	41.369036	-90.9284
62672	Nilwood	IL	39.397248	-89.80769
61654	Peoria	IL	40.744179	-89.718401
60119	Elburn	IL	41.876506	-88.46429
61062	Pearl City	IL	42.250987	-89.83571
61204	Rock Island	IL	41.554901	-90.615975
61423	Cameron	IL	40.889288	-90.50529
61318	Compton	IL	41.710715	-89.07807
61901	Bloomington	IL	40.810131	-88.477739
62475	West Liberty	IL	38.868463	-88.05466
60103	Bartlett	IL	41.977477	-88.17257
60539	Mooseheart	IL	41.823478	-88.3332
60914	Bourbonnais	IL	41.170442	-87.86891
61459	Marietta	IL	40.503305	-90.41808
62225	Scott Air Force Base	IL	38.544298	-89.85054
62093	Wilsonville	IL	39.068901	-89.85425
60467	Orland Park	IL	41.598255	-87.89201
62094	Witt	IL	39.249272	-89.35236
60712	Lincolnwood	IL	42.005331	-87.73545
62319	Camden	IL	40.147818	-90.74246
60087	Waukegan	IL	42.404272	-87.86525
60194	Schaumburg	IL	42.037108	-88.10719
62074	New Douglas	IL	38.964162	-89.68226
60902	Kankakee	IL	41.146464	-87.888971
61652	Peoria	IL	40.87671	-89.509113
62872	Opdyke	IL	38.281485	-88.7909
60193	Schaumburg	IL	42.01299	-88.09675
60680	Chicago	IL	41.811929	-87.68732
61410	Abingdon	IL	40.802633	-90.39766
61568	Tremont	IL	40.513656	-89.47408
61953	Tuscola	IL	39.793493	-88.29184
61603	Peoria	IL	40.712887	-89.57904
61476	Seaton	IL	41.095037	-90.80998
60086	North Chicago	IL	42.43335	-87.776595
60105	Bensenville	IL	41.839679	-88.088716
60936	Gibson City	IL	40.463079	-88.3731
61721	Armington	IL	40.341123	-89.32028
60035	Highland Park	IL	42.181875	-87.80956
60939	Goodwine	IL	40.748087	-87.82876
62047	Hardin	IL	39.128014	-90.6159
62823	Cisne	IL	38.51684	-88.43531
60142	Huntley	IL	42.171973	-88.42891
61736	Downs	IL	40.395487	-88.8498
60951	Martinton	IL	40.912916	-87.75589
61072	Rockton	IL	42.447856	-89.08485
62238	Cutler	IL	38.034281	-89.54537
60544	Plainfield	IL	41.607624	-88.19736
60640	Chicago	IL	41.973181	-87.6665
62973	Perks	IL	37.311333	-89.083056
62693	Williamsville	IL	39.956803	-89.54209
62723	Springfield	IL	39.749457	-89.606017
61326	Granville	IL	41.264159	-89.23655
61778	Waynesville	IL	40.242378	-89.1087
62765	Springfield	IL	39.749457	-89.606017
62688	Tallula	IL	39.944264	-89.93366
62930	Eldorado	IL	37.822259	-88.44456
60690	Chicago	IL	41.811929	-87.68732
62673	Oakford	IL	40.095009	-89.96998
60624	Chicago	IL	41.879365	-87.72199
61032	Freeport	IL	42.300918	-89.63208
60555	Warrenville	IL	41.82552	-88.19452
61111	Loves Park	IL	42.326227	-89.02573
62563	Rochester	IL	39.71984	-89.51229
60138	Glen Ellyn	IL	41.839679	-88.088716
60037	Fort Sheridan	IL	42.21196	-87.80808
60620	Chicago	IL	41.740483	-87.65282
61285	Thomson	IL	41.978758	-90.09248
62814	Bluford	IL	38.362934	-88.72896
60026	Glenview Nas	IL	41.811929	-87.68732
60604	Chicago	IL	41.877589	-87.62818
62415	Birds	IL	38.710336	-87.703639
60141	Hines	IL	41.858028	-87.83865
61629	Peoria	IL	40.692037	-89.588747
61941	Murdock	IL	39.801562	-88.07823
60302	Oak Park	IL	41.893941	-87.78899
60962	Roberts	IL	40.625486	-88.18667
61744	Gridley	IL	40.740729	-88.88791
61756	Maroa	IL	40.027071	-88.96715
61871	Royal	IL	40.192015	-87.97138
62458	Saint Elmo	IL	39.042992	-88.87463
60970	Watseka	IL	40.784447	-87.74051
61572	Yates City	IL	40.796752	-90.02866
62253	Keyesport	IL	38.761214	-89.29128
61745	Heyworth	IL	40.32122	-88.97442
61039	German Valley	IL	42.213851	-89.47449
62053	Kampsville	IL	39.322422	-90.64246
62913	Cache	IL	37.152775	-89.325581
60520	Hinckley	IL	41.776884	-88.64655
61606	Peoria	IL	40.699137	-89.60972
60652	Chicago	IL	41.7446	-87.71188
61007	Baileyville	IL	42.199457	-89.59662
61920	Charleston	IL	39.496547	-88.17348
60301	Oak Park	IL	41.887981	-87.79562
60634	Chicago	IL	41.944454	-87.79654
61910	Arcola	IL	39.676634	-88.30284
60151	Maple Park	IL	41.91842	-88.57626
61301	La Salle	IL	41.347117	-89.08974
60525	La Grange	IL	41.788536	-87.87605
61938	Mattoon	IL	39.474889	-88.37421
62920	Cobden	IL	37.540571	-89.25489
62321	Carthage	IL	40.414128	-91.11577
62379	Warsaw	IL	40.314446	-91.40638
62656	Lincoln	IL	40.149927	-89.36746
60186	West Chicago	IL	41.839679	-88.088716
60008	Rolling Meadows	IL	42.07506	-88.02508
60185	West Chicago	IL	41.891978	-88.20502
60530	Lee	IL	41.792378	-88.9516
61734	Delavan	IL	40.369256	-89.54251
62201	East Saint Louis	IL	38.62855	-90.14609
61087	Warren	IL	42.491388	-89.98979
60918	Buckley	IL	40.598963	-88.03308
62091	Walshville	IL	39.053344	-89.59324
61431	Ellisville	IL	40.617275	-90.29556
61468	Opheim	IL	41.254936	-90.40384
62715	Springfield	IL	39.749457	-89.606017
60168	Schaumburg	IL	41.811929	-87.68732
62425	Dundas	IL	38.830182	-88.09218
61401	Galesburg	IL	40.948073	-90.36871
61419	Bishop Hill	IL	41.200711	-90.11832
62610	Alsey	IL	39.564501	-90.43698
61131	Loves Park	IL	42.325364	-89.170527
61375	Varna	IL	41.037822	-89.25682
62329	Colusa	IL	40.571353	-91.168221
61261	Lyndon	IL	41.719782	-89.92116
61283	Tampico	IL	41.605825	-89.77628
62027	Eldred	IL	39.241734	-90.54614
62255	Lenzburg	IL	38.303147	-89.79161
60416	Coal City	IL	41.292011	-88.2783
60940	Grant Park	IL	41.244016	-87.64464
61340	Mark	IL	41.265597	-89.25106
60006	Arlington Heights	IL	41.811929	-87.68732
60420	Dwight	IL	41.089453	-88.42783
60425	Glenwood	IL	41.544584	-87.61289
61957	Windsor	IL	39.434148	-88.60033
60117	Bloomingdale	IL	41.839679	-88.088716
60515	Downers Grove	IL	41.80348	-88.01827
60565	Naperville	IL	41.728738	-88.12824
61379	Wyanet	IL	41.369056	-89.60321
61420	Blandinsville	IL	40.555678	-90.87087
62554	Oreana	IL	39.93706	-88.86332
60132	Carol Stream	IL	41.839679	-88.088716
60602	Chicago	IL	41.882937	-87.62874
61282	Silvis	IL	41.501234	-90.41404
61437	Gladstone	IL	40.854247	-90.96542
61750	Lane	IL	40.122884	-88.85664
52761	Muscatine	IL	41.413372	-91.00612
61830	Cisco	IL	40.020978	-88.72247
60068	Park Ridge	IL	42.01183	-87.84158
61872	Sadorus	IL	39.945328	-88.36389
62891	Valier	IL	38.01492	-89.04226
62950	Jacob	IL	37.75858	-89.56055
60011	Barrington	IL	42.322814	-87.610053
61530	Eureka	IL	40.718228	-89.27153
62763	Springfield	IL	39.749457	-89.606017
62792	Ullin	IL	37.277483	-89.186317
60617	Chicago	IL	41.719973	-87.5557
60666	Amf Ohare	IL	41.968029	-87.891214
61243	Deer Grove	IL	41.610151	-89.66298
62643	Hartsburg	IL	40.247835	-89.44123
62917	Carrier Mills	IL	37.692923	-88.65284
60411	Chicago Heights	IL	41.511307	-87.6101
61479	Speer	IL	40.999497	-89.65429
62049	Hillsboro	IL	39.146809	-89.48442
60678	Chicago	IL	41.811929	-87.68732
61376	Walnut	IL	41.546706	-89.60081
61531	Farmington	IL	40.68847	-90.02166
60070	Prospect Heights	IL	42.105576	-87.92816
61281	Sherrard	IL	41.303101	-90.50615
62767	Springfield	IL	39.749457	-89.606017
61299	Rock Island	IL	41.520333	-90.541585
61633	Peoria	IL	40.731165	-89.603081
60021	Fox River Grove	IL	42.194946	-88.21676
60480	Willow Springs	IL	41.737616	-87.87778
62739	Springfield	IL	39.749457	-89.606017
62877	Richview	IL	38.388876	-89.19244
62431	Herrick	IL	39.228594	-88.98873
60197	Carol Stream	IL	41.839679	-88.088716
61049	Lindenwood	IL	42.054546	-89.02456
61426	Castleton	IL	41.118359	-89.70575
61857	Muncie	IL	40.11594	-87.84208
62256	Maeystown	IL	38.30426	-90.135645
62977	Raleigh	IL	37.844963	-88.54416
60113	Creston	IL	41.93171	-88.96438
60466	Park Forest	IL	41.472934	-87.68767
62631	Concord	IL	39.817322	-90.36618
62719	Springfield	IL	39.749457	-89.606017
60120	Elgin	IL	42.037176	-88.25922
61018	Dakota	IL	42.403305	-89.55466
61544	London Mills	IL	40.688615	-90.24422
61855	Milmine	IL	39.919693	-88.67859
61378	West Brooklyn	IL	41.722744	-89.15601
62075	Nokomis	IL	39.299771	-89.2864
61943	Oakland	IL	39.655063	-88.01806
60671	Chicago	IL	41.811929	-87.68732
61822	Champaign	IL	40.126854	-88.29315
60556	Waterman	IL	41.768498	-88.77539
62991	Tunnel Hill	IL	37.540479	-88.86601
60961	Reddick	IL	41.105629	-88.23794
62089	Taylor Springs	IL	39.130404	-89.49298
62465	Strasburg	IL	39.354837	-88.63491
62651	Jacksonville	IL	39.698311	-90.26153
60681	Chicago	IL	41.811929	-87.68732
60152	Marengo	IL	42.242199	-88.61034
60928	Crescent City	IL	40.766096	-87.85474
62776	Springfield	IL	39.749457	-89.606017
62934	Equality	IL	37.716434	-88.37184
60661	Chicago	IL	41.882082	-87.64461
62374	Tennessee	IL	40.403553	-90.8834
62864	Mount Vernon	IL	38.322558	-88.90842
61552	Mossville	IL	40.817587	-89.56654
62065	Michael	IL	39.235652	-90.62842
61078	Shannon	IL	42.15834	-89.73555
62613	Athens	IL	39.982768	-89.68326
62897	Whittington	IL	38.084617	-88.92096
61832	Danville	IL	40.133786	-87.62898
61266	Moline	IL	41.554901	-90.615975
60156	Lake in the Hills	IL	42.185733	-88.348484
61323	Dover	IL	41.435327	-89.39583
62376	Ursa	IL	40.09625	-91.38474
60532	Lisle	IL	41.789079	-88.08536
61638	Peoria	IL	40.796887	-89.611146
62815	Bone Gap	IL	38.452172	-87.9939
62541	Lake Fork	IL	39.969864	-89.35051
61821	Champaign	IL	40.108631	-88.2733
61930	Hindsboro	IL	39.685822	-88.11971
62746	Springfield	IL	39.749457	-89.606017
62032	Fillmore	IL	39.114972	-89.28092
60471	Richton Park	IL	41.483844	-87.72134
61239	Carbon Cliff	IL	41.497667	-90.39047
62247	Hagarstown	IL	38.977111	-88.975507
62851	Keenes	IL	38.423947	-88.6692
62869	Norris City	IL	37.971434	-88.30419
60455	Bridgeview	IL	41.742432	-87.80678
60610	Chicago	IL	41.898582	-87.6371
62510	Assumption	IL	39.530502	-89.03829
60181	Villa Park	IL	41.880429	-87.97813
61882	Weldon	IL	40.119483	-88.75367
62450	Olney	IL	38.72456	-88.08658
60504	Aurora	IL	41.760067	-88.25218
61235	Atkinson	IL	41.409646	-90.01821
62326	Colchester	IL	40.421857	-90.80333
61244	East Moline	IL	41.518733	-90.41788
62422	Cowden	IL	39.251624	-88.86505
60433	Joliet	IL	41.511644	-88.05698
61421	Bradford	IL	41.174037	-89.65849
62649	Hettick	IL	39.348487	-90.08365
60912	Beaverville	IL	40.968579	-87.61611
60954	Momence	IL	41.147918	-87.63579
61859	Ogden	IL	40.149486	-87.96347
62285	Smithton	IL	38.399148	-89.99604
62663	Manchester	IL	39.544196	-90.32677
61020	Davis Junction	IL	42.101928	-89.09369
62361	Pearl	IL	39.469982	-90.63108
60204	Evanston	IL	41.811929	-87.68732
62919	Cave In Rock	IL	37.495812	-88.16099
60101	Addison	IL	41.931573	-88.00222
60474	South Wilmington	IL	41.173313	-88.27494
61230	Albany	IL	41.766003	-90.22322
62709	Springfield	IL	39.749457	-89.606017
60140	Hampshire	IL	42.086218	-88.5036
61328	Kasbeer	IL	41.504603	-89.46289
62289	Summerfield	IL	38.596948	-89.75117
60637	Chicago	IL	41.779384	-87.60544
61478	Smithshire	IL	40.777241	-90.76454
60633	Chicago	IL	41.655423	-87.55365
60182	Virgil	IL	41.908736	-88.59915
60201	Evanston	IL	42.056391	-87.69684
62413	Annapolis	IL	39.138761	-87.83769
62956	Karnak	IL	37.279433	-88.93959
60426	Harvey	IL	41.609078	-87.66264
60543	Oswego	IL	41.684896	-88.34177
61369	Toluca	IL	40.992084	-89.15231
61411	Adair	IL	40.401282	-90.50153
61749	Kenney	IL	40.091729	-89.10358
60178	Sycamore	IL	41.990505	-88.68704
60638	Chicago	IL	41.787982	-87.7738
62908	Belknap	IL	37.308412	-88.88076
61233	Andover	IL	41.292977	-90.29334
61312	Arlington	IL	41.435197	-89.23432
62360	Payson	IL	39.813094	-91.25561
62539	Illiopolis	IL	39.855984	-89.2487
60042	Island Lake	IL	42.277691	-88.20074
61944	Paris	IL	39.608494	-87.69958
62821	Carmi	IL	38.087838	-88.15583
60611	Chicago	IL	41.904667	-87.62504
62526	Decatur	IL	39.878041	-88.95637
62545	Mechanicsburg	IL	39.77386	-89.39012
62407	Summit	IL	39.148234	-88.593764
60605	Chicago	IL	41.860019	-87.6187
62966	Murphysboro	IL	37.771806	-89.33971
60431	Joliet	IL	41.52493	-88.19022
62674	Palmyra	IL	39.429687	-90.01499
60423	Frankfort	IL	41.501178	-87.83875
62087	South Roxana	IL	38.828347	-90.05894
62449	Oblong	IL	39.006483	-87.90005
62277	Prairie Du Rocher	IL	38.095119	-90.09885
62349	Loraine	IL	40.160393	-91.20372
62796	Springfield	IL	39.749457	-89.606017
61427	Cuba	IL	40.499297	-90.17764
62958	Makanda	IL	37.612173	-89.17587
62960	Metropolis	IL	37.18308	-88.73327
61043	Holcomb	IL	42.045123	-89.313593
60599	Fox Valley	IL	41.839679	-88.088716
62882	Sandoval	IL	38.60823	-89.11963
61467	Oneida	IL	41.069414	-90.24177
61540	Lacon	IL	41.030697	-89.38586
61851	Ivesdale	IL	39.950391	-88.43939
60557	Wedron	IL	41.438531	-88.76933
61321	Dana	IL	40.963663	-88.97932
62442	Martinsville	IL	39.32463	-87.86922
62668	Murrayville	IL	39.576392	-90.24769
60960	Rankin	IL	40.439688	-87.89016
60001	Alden	IL	42.324761	-88.452481
61541	La Rose	IL	40.975736	-89.23943
61630	Peoria	IL	40.744179	-89.718401
62002	Alton	IL	38.906065	-90.15909
62817	Broughton	IL	37.954727	-88.47128
61758	Merna	IL	40.52835	-88.84075
61474	Saint Augustine	IL	40.740729	-90.37946
62052	Jerseyville	IL	39.114762	-90.32442
62931	Elizabethtown	IL	37.511139	-88.28284
61284	Taylor Ridge	IL	41.406276	-90.735
61325	Grand Ridge	IL	41.234167	-88.82807
Chicago	Chicago	IL	41.901485	-87.74055
Venice	Venice	IL	38.67065	-90.17052
Casey	Casey	IL	39.299447	-87.99863
East Saint Louis	East Saint Louis	IL	38.564451	-90.1628
Arenzville	Arenzville	IL	39.883346	-90.39332
Woodland	Woodland	IL	40.710295	-87.73137
Alhambra	Alhambra	IL	38.884434	-89.74886
Glenview	Glenview	IL	42.07672	-87.81922
Hillyard	Hillyard	IL	39.128248	-89.923215
Glendale Heights	Glendale Heights	IL	41.920228	-88.07891
Lansing	Lansing	IL	41.565685	-87.54819
Rockford	Rockford	IL	42.280019	-89.03347
Rantoul	Rantoul	IL	40.307065	-88.15575
Chicago	Chicago	IL	41.811929	-87.68732
Stoy	Stoy	IL	38.98981	-87.839627
Hecker	Hecker	IL	38.299507	-89.961825
Mt Zion	Mt Zion	IL	39.777116	-88.87171
Loves Park	Loves Park	IL	42.325364	-89.170527
Carbondale	Carbondale	IL	37.758646	-89.415831
Mount Olive	Mount Olive	IL	39.077557	-89.73423
Logan	Logan	IL	37.994296	-88.941665
McClure	McClure	IL	37.305331	-89.43066
Palos Hills	Palos Hills	IL	41.699432	-87.82977
Rosamond	Rosamond	IL	39.354674	-89.19993
Claremont	Claremont	IL	38.755492	-87.95334
Lincolnshire	Lincolnshire	IL	42.188074	-87.92717
Chicago	Chicago	IL	41.811929	-87.68732
Chicago	Chicago	IL	41.811929	-87.68732
Essex	Essex	IL	41.17569	-88.17268
Little York	Little York	IL	41.010666	-90.75393
Fairfield	Fairfield	IL	38.374627	-88.35735
Chicago	Chicago	IL	41.811929	-87.68732
Donovan	Donovan	IL	40.876303	-87.60159
Norris	Norris	IL	40.449305	-90.161761
Percy	Percy	IL	38.006386	-89.61645
La Prairie	La Prairie	IL	40.151799	-90.95426
Braidwood	Braidwood	IL	41.262178	-88.22307
Manito	Manito	IL	40.442037	-89.78797
Peoria	Peoria	IL	40.765301	-89.569207
Ridge Farm	Ridge Farm	IL	39.90241	-87.62722
Blue Mound	Blue Mound	IL	39.716269	-89.13269
La Harpe	La Harpe	IL	40.567399	-90.97066
Clayton	Clayton	IL	39.988988	-90.94976
Omaha	Omaha	IL	37.877628	-88.29114
Kilbourne	Kilbourne	IL	40.147371	-90.00698
Carol Stream	Carol Stream	IL	41.839679	-88.088716
Chebanse	Chebanse	IL	41.005603	-87.90649
Ladd	Ladd	IL	41.380259	-89.21239
Marissa	Marissa	IL	38.260108	-89.73627
Gilberts	Gilberts	IL	42.099479	-88.36942
Clinton	Clinton	IL	40.145501	-88.96776
Bardolph	Bardolph	IL	40.496817	-90.56334
Union Hill	Union Hill	IL	41.109101	-88.14732
Monroe Center	Monroe Center	IL	42.110548	-89.00751
Maywood	Maywood	IL	41.880281	-87.84455
Bloomington	Bloomington	IL	40.519236	-88.864303
Beecher	Beecher	IL	41.350484	-87.62408
Normal	Normal	IL	40.515485	-88.98629
Saint Charles	Saint Charles	IL	41.919808	-88.30498
Oak Park	Oak Park	IL	41.87355	-87.7885
Springfield	Springfield	IL	39.79885	-89.653399
Batchtown	Batchtown	IL	39.079147	-90.67372
North Chicago	North Chicago	IL	42.326072	-87.85202
Dewey	Dewey	IL	40.310244	-88.30526
Griggsville	Griggsville	IL	39.71345	-90.72045
Hamilton	Hamilton	IL	40.402015	-91.33182
Shipman	Shipman	IL	39.14665	-90.00059
Cooksville	Cooksville	IL	40.537652	-88.73274
Sainte Marie	Sainte Marie	IL	38.93148	-88.0252
Tolono	Tolono	IL	39.981936	-88.2532
Dahinda	Dahinda	IL	40.952695	-90.12141
Peoria	Peoria	IL	40.744179	-89.718401
Lima	Lima	IL	40.180236	-91.37791
Seward	Seward	IL	42.236813	-89.35828
Rockford	Rockford	IL	42.213439	-89.05595
Minonk	Minonk	IL	40.893593	-89.03266
Peoria	Peoria	IL	40.743266	-89.576628
Lake Forest	Lake Forest	IL	42.238087	-87.86093
Monmouth	Monmouth	IL	40.918849	-90.64466
Coffeen	Coffeen	IL	39.081889	-89.37787
Ipava	Ipava	IL	40.337555	-90.30458
Evansville	Evansville	IL	38.092615	-89.93485
Reynolds	Reynolds	IL	41.31653	-90.70671
Coleta	Coleta	IL	41.902977	-89.804293
Colona	Colona	IL	41.483484	-90.34046
Morrison	Morrison	IL	41.819003	-89.96623
Peru	Peru	IL	41.330789	-89.1299
Ina	Ina	IL	38.149474	-88.89634
Odin	Odin	IL	38.614141	-89.04738
Great Lakes	Great Lakes	IL	42.312372	-87.85284
Piasa	Piasa	IL	39.115848	-90.13336
Chester	Chester	IL	37.921816	-89.82842
Toledo	Toledo	IL	39.273828	-88.25646
Pomona	Pomona	IL	37.618822	-89.3617
Westville	Westville	IL	40.040115	-87.63685
Altamont	Altamont	IL	39.062913	-88.73912
Clifton	Clifton	IL	40.937573	-87.94105
Carlyle	Carlyle	IL	38.623384	-89.36368
Chicago	Chicago	IL	41.881331	-87.75671
Ancona	Ancona	IL	41.042878	-88.86268
Hillview	Hillview	IL	39.430595	-90.54502
Metcalf	Metcalf	IL	39.805101	-87.81014
Lake Bluff	Lake Bluff	IL	42.286222	-87.86309
Peoria	Peoria	IL	40.693137	-89.589847
West Frankfort	West Frankfort	IL	37.894496	-88.93037
Dundee	Dundee	IL	42.101502	-88.28891
Carterville	Carterville	IL	37.766029	-89.08355
Aurora	Aurora	IL	41.935616	-88.43238
Steward	Steward	IL	41.830628	-89.01704
Waltonville	Waltonville	IL	38.212746	-89.03866
Geff	Geff	IL	38.460323	-88.37124
Fairview Heights	Fairview Heights	IL	38.596199	-90.00227
Dekalb	Dekalb	IL	41.924127	-88.74617
Itasca	Itasca	IL	41.972328	-88.02196
Geneva	Geneva	IL	41.885728	-88.31957
Crystal Lake	Crystal Lake	IL	42.265643	-88.31664
La Moille	La Moille	IL	41.53364	-89.27691
Prairie City	Prairie City	IL	40.614899	-90.47345
Country Club Hills	Country Club Hills	IL	41.561134	-87.72398
Elmwood	Elmwood	IL	40.780415	-89.95565
Boody	Boody	IL	39.759905	-89.05465
River Forest	River Forest	IL	41.882081	-87.821359
Madison	Madison	IL	38.6807	-90.15411
Longview	Longview	IL	39.901988	-88.07537
Springfield	Springfield	IL	39.749457	-89.606017
Rinard	Rinard	IL	38.578119	-88.49714
Pleasant Hill	Pleasant Hill	IL	39.450931	-90.87779
Chicago	Chicago	IL	41.811929	-87.68732
Rockford	Rockford	IL	42.325364	-89.170527
Saint David	Saint David	IL	40.489747	-90.05501
Henning	Henning	IL	40.306282	-87.70192
Rockport	Rockport	IL	39.510835	-90.99193
Springfield	Springfield	IL	39.749457	-89.606017
Lancaster	Lancaster	IL	38.403424	-87.818672
Virginia	Virginia	IL	39.952909	-90.21218
Bellmont	Bellmont	IL	38.384799	-87.90949
Pittsburg	Pittsburg	IL	37.780592	-88.82344
Port Byron	Port Byron	IL	41.599642	-90.31978
Preemption	Preemption	IL	41.30589	-90.5979
Gillespie	Gillespie	IL	39.127717	-89.8288
Pekin	Pekin	IL	40.567088	-89.63382
Glen Ellyn	Glen Ellyn	IL	41.869779	-88.06285
Chicago	Chicago	IL	41.995331	-87.7601
Chicago	Chicago	IL	41.888627	-87.63538
Urbana	Urbana	IL	40.121648	-88.17649
Fieldon	Fieldon	IL	39.103735	-90.54252
Rockford	Rockford	IL	42.325364	-89.170527
Brimfield	Brimfield	IL	40.744179	-89.718401
Stonefort	Stonefort	IL	37.635792	-88.67912
Wataga	Wataga	IL	41.030951	-90.29705
East Saint Louis	East Saint Louis	IL	38.6163	-90.159059
Redmon	Redmon	IL	39.646359	-87.86014
Nauvoo	Nauvoo	IL	40.531825	-91.36598
Millcreek	Millcreek	IL	37.340918	-89.254203
Arlington Heights	Arlington Heights	IL	42.108428	-87.97723
Montgomery	Montgomery	IL	41.721886	-88.32972
Magnolia	Magnolia	IL	41.111077	-89.21207
Matteson	Matteson	IL	41.503468	-87.73695
Quincy	Quincy	IL	39.96008	-91.302633
Versailles	Versailles	IL	39.884796	-90.6289
Meredosia	Meredosia	IL	39.818631	-90.55791
Mansfield	Mansfield	IL	40.213607	-88.5296
Des Plaines	Des Plaines	IL	42.047178	-87.89058
Plano	Plano	IL	41.665654	-88.53697
Scales Mound	Scales Mound	IL	42.473737	-90.25362
Springfield	Springfield	IL	39.749457	-89.606017
Gurnee	Gurnee	IL	42.375821	-87.93517
Atwater	Atwater	IL	39.346468	-89.73278
Peoria	Peoria	IL	40.696287	-89.616648
Mascoutah	Mascoutah	IL	38.439983	-89.983521
Niota	Niota	IL	40.587769	-91.26301
Mulkeytown	Mulkeytown	IL	37.963264	-89.06906
Wheaton	Wheaton	IL	41.858279	-88.10904
Liverpool	Liverpool	IL	40.392048	-89.99885
Colfax	Colfax	IL	40.56944	-88.62727
Springerton	Springerton	IL	38.185822	-88.36923
Olmsted	Olmsted	IL	37.199769	-89.10964
Chatsworth	Chatsworth	IL	40.757447	-88.29306
Geneseo	Geneseo	IL	41.464473	-90.15854
Edwards	Edwards	IL	40.776845	-89.7401
Hillside	Hillside	IL	41.872997	-87.90101
Dunlap	Dunlap	IL	40.849036	-89.65554
Tilden	Tilden	IL	38.214035	-89.68346
Libertyville	Libertyville	IL	42.290922	-87.95169
Capron	Capron	IL	42.401104	-88.74726
Orangeville	Orangeville	IL	42.475891	-89.63404
Arrowsmith	Arrowsmith	IL	40.434885	-88.62237
Gays	Gays	IL	39.45274	-88.5144
Northbrook	Northbrook	IL	42.124576	-87.84303
Bethany	Bethany	IL	39.639487	-88.74383
Aurora	Aurora	IL	41.936977	-88.420178
Hinsdale	Hinsdale	IL	41.772915	-87.92996
Buffalo Prairie	Buffalo Prairie	IL	41.336752	-90.852226
Woodhull	Woodhull	IL	41.183299	-90.27637
Benton	Benton	IL	38.000245	-88.92407
Elk Grove Village	Elk Grove Village	IL	42.005978	-87.99847
Liberty	Liberty	IL	39.876235	-91.1106
Effingham	Effingham	IL	39.123807	-88.56
Hidalgo	Hidalgo	IL	39.139262	-88.14862
Sparta	Sparta	IL	38.122112	-89.71168
Oak Forest	Oak Forest	IL	41.605633	-87.75356
Ingleside	Ingleside	IL	42.372721	-88.15303
Hanover Park	Hanover Park	IL	41.980896	-88.144475
McHenry	McHenry	IL	42.35344	-88.260692
Peoria	Peoria	IL	40.744179	-89.718401
Dallas City	Dallas City	IL	40.630407	-91.15278
Hooppole	Hooppole	IL	41.522044	-89.91216
Tilton	Tilton	IL	40.096186	-87.64569
Carol Stream	Carol Stream	IL	41.839679	-88.088716
Cabery	Cabery	IL	40.987824	-88.23737
Orion	Orion	IL	41.357236	-90.38482
Goodfield	Goodfield	IL	40.628105	-89.28004
Elkville	Elkville	IL	37.907619	-89.23151
Litchfield	Litchfield	IL	39.179875	-89.65721
Bartelso	Bartelso	IL	38.535097	-89.46426
Ottawa	Ottawa	IL	41.35263	-88.84734
Chicago	Chicago	IL	41.811929	-87.68732
Chicago	Chicago	IL	41.811929	-87.68732
Princeville	Princeville	IL	40.935608	-89.76802
Lyons	Lyons	IL	41.812331	-87.82318
Van Orin	Van Orin	IL	41.543813	-89.35449
De Land	De Land	IL	40.139336	-88.62966
Eddyville	Eddyville	IL	37.501552	-88.58141
Johnsonville	Johnsonville	IL	38.513119	-88.58911
South Holland	South Holland	IL	41.597472	-87.59909
Pierron	Pierron	IL	38.780229	-89.5973
Nelson	Nelson	IL	41.797256	-89.599529
Aledo	Aledo	IL	41.202461	-90.73137
Forrest	Forrest	IL	40.756972	-88.40479
Palatine	Palatine	IL	42.10979	-88.04917
Mount Morris	Mount Morris	IL	42.046139	-89.44025
McNabb	McNabb	IL	41.168946	-89.2205
Marine	Marine	IL	38.78956	-89.77538
Menard	Menard	IL	38.013132	-89.899569
Wheeler	Wheeler	IL	39.038732	-88.31569
Cantrall	Cantrall	IL	39.909732	-89.68831
Rapids City	Rapids City	IL	41.585883	-90.343228
Frederick	Frederick	IL	40.04195	-90.46831
Bonnie	Bonnie	IL	38.192726	-88.93138
Boles	Boles	IL	37.44725	-88.876792
Wheeling	Wheeling	IL	42.131526	-87.92958
Evergreen Park	Evergreen Park	IL	41.719933	-87.70249
Rockford	Rockford	IL	42.254087	-89.01776
Huntsville	Huntsville	IL	40.18275	-90.81819
Buffalo	Buffalo	IL	39.861289	-89.37836
Joliet	Joliet	IL	41.533631	-88.05592
Erie	Erie	IL	41.657803	-90.08613
Stockton	Stockton	IL	42.350108	-90.02362
Cornell	Cornell	IL	41.011259	-88.74854
Champaign	Champaign	IL	40.114931	-88.24322
Auburn	Auburn	IL	39.588902	-89.75177
Lexington	Lexington	IL	40.63872	-88.7923
Brushy Mound	Brushy Mound	IL	39.213822	-89.82872
Chrisman	Chrisman	IL	39.786334	-87.66325
Springfield	Springfield	IL	39.749457	-89.606017
Schaumburg	Schaumburg	IL	42.056376	-88.072522
Tonica	Tonica	IL	41.21076	-89.03886
Papineau	Papineau	IL	40.966993	-87.716074
Freeburg	Freeburg	IL	38.425949	-89.90389
Grayslake	Grayslake	IL	42.338955	-88.03433
Hudson	Hudson	IL	40.627948	-88.97711
Mahomet	Mahomet	IL	40.205916	-88.40295
Edwardsville	Edwardsville	IL	38.819297	-89.9551
Western Springs	Western Springs	IL	41.805531	-87.90103
Neoga	Neoga	IL	39.32205	-88.45037
Claytonville	Claytonville	IL	40.572516	-87.81825
Girard	Girard	IL	39.436584	-89.8028
Russell	Russell	IL	42.322814	-87.610053
Des Plaines	Des Plaines	IL	42.024278	-87.907066
Mchenry	Mchenry	IL	42.324761	-88.452481
Colp	Colp	IL	37.804876	-89.08118
Machesney Park	Machesney Park	IL	42.352539	-89.04186
Mineral	Mineral	IL	41.394429	-89.84111
Bryant	Bryant	IL	40.466273	-90.095368
Golconda	Golconda	IL	37.374723	-88.52571
Herod	Herod	IL	37.567779	-88.39925
Harmon	Harmon	IL	41.69339	-89.56986
Grand Tower	Grand Tower	IL	37.629601	-89.48077
Rockford	Rockford	IL	42.292221	-89.12574
Steger	Steger	IL	41.470084	-87.63369
Carlinville	Carlinville	IL	39.280289	-89.8757
Des Plaines	Des Plaines	IL	42.028779	-87.894366
Sims	Sims	IL	38.374398	-88.53537
New Lenox	New Lenox	IL	41.509231	-87.96475
Gilman	Gilman	IL	40.767194	-87.98929
Dale	Dale	IL	37.999757	-88.50469
Newton	Newton	IL	38.974018	-88.17881
Garden Prairie	Garden Prairie	IL	42.255617	-88.74344
Broadview	Broadview	IL	41.857931	-87.85477
Downers Grove	Downers Grove	IL	41.761463	-88.01334
White Hall	White Hall	IL	39.433041	-90.40655
Eola	Eola	IL	41.778379	-88.24268
Marshall	Marshall	IL	39.396463	-87.69589
Amboy	Amboy	IL	41.707588	-89.34371
Bluffs	Bluffs	IL	39.740558	-90.53937
Bunker Hill	Bunker Hill	IL	39.039382	-89.94935
Altona	Altona	IL	41.117342	-90.16063
Fairmount	Fairmount	IL	40.039632	-87.83052
Latham	Latham	IL	39.965691	-89.15936
Braceville	Braceville	IL	41.230524	-88.25503
Joy	Joy	IL	41.228561	-90.87565
Bradley	Bradley	IL	41.144256	-87.86239
Bedford Park	Bedford Park	IL	41.811929	-87.68732
Cottage Hills	Cottage Hills	IL	38.905998	-90.08306
Mount Auburn	Mount Auburn	IL	39.771541	-89.24331
Earlville	Earlville	IL	41.599139	-88.91932
Lawrenceville	Lawrenceville	IL	38.738226	-87.65984
Niantic	Niantic	IL	39.838505	-89.15191
Oglesby	Oglesby	IL	41.292401	-89.05943
Macon	Macon	IL	39.693983	-88.98068
Hickory Hills	Hickory Hills	IL	41.723782	-87.82825
Quincy	Quincy	IL	39.929597	-91.37415
Bridgeport	Bridgeport	IL	38.720425	-87.76815
Hoffman Estates	Hoffman Estates	IL	42.079336	-88.223655
Byron	Byron	IL	42.131245	-89.26637
West York	West York	IL	39.175832	-87.72312
Goreville	Goreville	IL	37.558235	-88.96661
Strawn	Strawn	IL	40.653799	-88.39026
Waukegan	Waukegan	IL	42.361271	-87.86187
Carpentersville	Carpentersville	IL	42.121188	-88.27227
Lafox	Lafox	IL	41.936977	-88.420178
Springfield	Springfield	IL	39.749457	-89.606017
Iola	Iola	IL	38.757302	-88.473594
Manhattan	Manhattan	IL	41.407474	-87.96883
Eldena	Eldena	IL	41.770952	-89.41267
Glen Carbon	Glen Carbon	IL	38.75592	-89.97442
New Memphis	New Memphis	IL	38.478	-89.67869
Chicago	Chicago	IL	41.811929	-87.68732
Bethalto	Bethalto	IL	38.912297	-90.043
Calhoun	Calhoun	IL	38.625864	-87.99407
Ramsey	Ramsey	IL	39.136284	-89.10348
Gerlaw	Gerlaw	IL	40.972589	-90.54835
Stronghurst	Stronghurst	IL	40.727428	-90.91347
Saybrook	Saybrook	IL	40.430727	-88.52548
Alexander	Alexander	IL	39.754308	-90.02786
Zion	Zion	IL	42.451371	-87.84862
Rock Island	Rock Island	IL	41.554901	-90.615975
Moro	Moro	IL	38.91973	-90.01241
Springfield	Springfield	IL	39.749457	-89.606017
Lawndale	Lawndale	IL	40.21927	-89.285172
Mascoutah	Mascoutah	IL	38.481674	-89.79432
Elmhurst	Elmhurst	IL	41.89103	-87.94181
Tower Hill	Tower Hill	IL	39.385344	-88.95588
Springfield	Springfield	IL	39.749457	-89.606017
Peoria	Peoria	IL	40.764368	-89.6448
Cerro Gordo	Cerro Gordo	IL	39.889596	-88.72633
Hennepin	Hennepin	IL	41.252101	-89.32451
Raymond	Raymond	IL	39.312686	-89.59541
Jacksonville	Jacksonville	IL	39.730234	-90.22941
Victoria	Victoria	IL	41.025484	-90.08422
Philadelphia	Philadelphia	IL	39.852164	-90.143114
Canton	Canton	IL	40.552853	-90.02794
Dawson	Dawson	IL	39.824457	-89.45643
Burnt Prairie	Burnt Prairie	IL	38.247883	-88.22944
Cambridge	Cambridge	IL	41.286797	-90.17486
Rutland	Rutland	IL	40.986256	-89.04364
Potomac	Potomac	IL	40.306774	-87.80716
Golden Eagle	Golden Eagle	IL	38.91384	-90.57421
Ewing	Ewing	IL	38.096551	-88.82763
Springfield	Springfield	IL	39.749457	-89.606017
Belle Rive	Belle Rive	IL	38.218349	-88.73999
Elk Grove Village	Elk Grove Village	IL	41.811929	-87.68732
New Salem	New Salem	IL	39.696523	-90.84253
Bloomingdale	Bloomingdale	IL	41.94954	-88.08256
Paw Paw	Paw Paw	IL	41.690735	-88.98815
Rome	Rome	IL	40.874269	-89.506695
Belleville	Belleville	IL	38.50046	-89.97654
Royalton	Royalton	IL	37.884066	-89.11128
Lostant	Lostant	IL	41.144329	-89.08815
Carrollton	Carrollton	IL	39.301561	-90.41674
Ozark	Ozark	IL	37.548762	-88.74145
Wood Dale	Wood Dale	IL	41.962979	-87.97688
Allerton	Allerton	IL	39.909736	-87.93384
West Salem	West Salem	IL	38.527107	-88.00583
Johnston City	Johnston City	IL	37.820724	-88.92647
Melrose Park	Melrose Park	IL	41.811929	-87.68732
Chicago	Chicago	IL	41.8474	-87.63126
Rockbridge	Rockbridge	IL	39.261499	-90.23039
Cissna Park	Cissna Park	IL	40.565374	-87.88177
Nora	Nora	IL	42.455036	-89.94561
Columbia	Columbia	IL	38.442906	-90.20775
Huey	Huey	IL	38.601768	-89.291549
Kirkland	Kirkland	IL	42.100571	-88.87665
Des Plaines	Des Plaines	IL	42.008429	-87.89234
Rockford	Rockford	IL	42.325364	-89.170527
Modesto	Modesto	IL	39.487357	-89.99143
Mount Pulaski	Mount Pulaski	IL	39.993254	-89.29707
Dixon	Dixon	IL	41.843702	-89.47636
Anchor	Anchor	IL	40.553838	-88.5101
Panama	Panama	IL	39.031623	-89.5228
Brighton	Brighton	IL	39.038752	-90.13819
Godfrey	Godfrey	IL	38.947841	-90.2216
Decatur	Decatur	IL	39.840482	-89.00569
Winchester	Winchester	IL	39.628929	-90.46107
Wolf Lake	Wolf Lake	IL	37.508233	-89.43987
Chicago	Chicago	IL	41.921126	-87.70085
Peoria	Peoria	IL	40.744179	-89.718401
Saint Francisville	Saint Francisville	IL	38.596277	-87.65542
Cypress	Cypress	IL	37.34	-89.03177
Gorham	Gorham	IL	37.727109	-89.47618
Vernon Hills	Vernon Hills	IL	42.229856	-87.96779
Chenoa	Chenoa	IL	40.740106	-88.70948
Elkhart	Elkhart	IL	40.02489	-89.46592
Utica	Utica	IL	41.37061	-89.0149
Burbank	Burbank	IL	41.744082	-87.77022
Batavia	Batavia	IL	41.845228	-88.30995
Rio	Rio	IL	41.105401	-90.38717
Woodson	Woodson	IL	39.627307	-90.22101
Fox Valley	Fox Valley	IL	41.839679	-88.088716
Metamora	Metamora	IL	40.784412	-89.40841
Garrett	Garrett	IL	39.809913	-88.343237
Peotone	Peotone	IL	41.331114	-87.79917
Cary	Cary	IL	42.217523	-88.24338
Elgin	Elgin	IL	42.04133	-88.3126
Seneca	Seneca	IL	41.320345	-88.61017
Nason	Nason	IL	38.16542	-88.967551
Skokie	Skokie	IL	42.03618	-87.7321
Elvaston	Elvaston	IL	40.396983	-91.25029
Andalusia	Andalusia	IL	41.440852	-90.71957
East Peoria	East Peoria	IL	40.683387	-89.54493
Esmond	Esmond	IL	42.034502	-88.97084
Spring Valley	Spring Valley	IL	41.332908	-89.20847
De Soto	De Soto	IL	37.82526	-89.20301
Paxton	Paxton	IL	40.448736	-88.11405
Melrose Park	Melrose Park	IL	41.91823	-87.89627
Chicago	Chicago	IL	41.882582	-87.6376
Quincy	Quincy	IL	39.97863	-91.21256
Lakewood	Lakewood	IL	39.317235	-88.87876
Lewistown	Lewistown	IL	40.39309	-90.13748
Camp Point	Camp Point	IL	40.020397	-91.07407
Melrose Park	Melrose Park	IL	41.89988	-87.85978
Chicago	Chicago	IL	41.850232	-87.718
Summit Argo	Summit Argo	IL	41.784832	-87.81
Serena	Serena	IL	41.490329	-88.74998
Savanna	Savanna	IL	42.099635	-90.12858
North Henderson	North Henderson	IL	41.100353	-90.46726
Zeigler	Zeigler	IL	37.8974	-89.05385
Bureau	Bureau	IL	41.289819	-89.37069
Chicago	Chicago	IL	41.811929	-87.68732
Arthur	Arthur	IL	39.704391	-88.45985
Wrights	Wrights	IL	39.376153	-90.293302
Fults	Fults	IL	38.200113	-90.2272
Bushnell	Bushnell	IL	40.550883	-90.51766
Urbana	Urbana	IL	40.10593	-88.224669
Albion	Albion	IL	38.375576	-88.07169
Chicago	Chicago	IL	41.814283	-87.65282
Stewardson	Stewardson	IL	39.2807	-88.62403
Waverly	Waverly	IL	39.583983	-89.9396
Sheldon	Sheldon	IL	40.762507	-87.57423
Livingston	Livingston	IL	38.967324	-89.76133
Golf	Golf	IL	42.056529	-87.79286
East Alton	East Alton	IL	38.868136	-90.08023
Carman	Carman	IL	40.778519	-91.05902
Springfield	Springfield	IL	39.749457	-89.606017
Du Quoin	Du Quoin	IL	38.011729	-89.24688
Flora	Flora	IL	38.667752	-88.48855
Lemont	Lemont	IL	41.676028	-87.98258
Buckner	Buckner	IL	37.980455	-89.01261
Alsip	Alsip	IL	41.675861	-87.73189
Seatonville	Seatonville	IL	41.363772	-89.26975
Media	Media	IL	40.734056	-90.82654
Orient	Orient	IL	37.921795	-88.97892
Coulterville	Coulterville	IL	38.188624	-89.59789
Bolingbrook	Bolingbrook	IL	41.703097	-88.07462
Belleville	Belleville	IL	38.55615	-90.05078
Harvel	Harvel	IL	39.359529	-89.52648
Springfield	Springfield	IL	39.749457	-89.606017
Princeton	Princeton	IL	41.372528	-89.44315
Oakdale	Oakdale	IL	38.271313	-89.51773
Danforth	Danforth	IL	40.823527	-87.9874
Medora	Medora	IL	39.188838	-90.14654
East Saint Louis	East Saint Louis	IL	38.6151	-90.12675
Baldwin	Baldwin	IL	38.178395	-89.84183
Kansas	Kansas	IL	39.556054	-87.92289
Wyoming	Wyoming	IL	41.068691	-89.76033
Gilson	Gilson	IL	40.859964	-90.22212
East Carondelet	East Carondelet	IL	38.535325	-90.21617
Pana	Pana	IL	39.3928	-89.08194
Riverside	Riverside	IL	41.836131	-87.82163
Lowpoint	Lowpoint	IL	40.873236	-89.37082
Belleville	Belleville	IL	38.53895	-90.00104
Oakford	Oakford	IL	40.104623	-89.96382
Hopkins Park	Hopkins Park	IL	41.146464	-87.888971
Virden	Virden	IL	39.503383	-89.76667
Vergennes	Vergennes	IL	37.901441	-89.33485
Wauconda	Wauconda	IL	42.263181	-88.14328
La Grange Park	La Grange Park	IL	41.829831	-87.8704
Millington	Millington	IL	41.56253	-88.59921
Franklin	Franklin	IL	39.609647	-90.08116
Evanston	Evanston	IL	42.048879	-87.7175
Winfield	Winfield	IL	41.875228	-88.15261
Willisville	Willisville	IL	37.983687	-89.5905
Flossmoor	Flossmoor	IL	41.539384	-87.68424
Pekin	Pekin	IL	40.56071	-89.650232
Minier	Minier	IL	40.431577	-89.32013
Broadlands	Broadlands	IL	39.91613	-88.00203
Dorsey	Dorsey	IL	38.976011	-89.97461
Teutopolis	Teutopolis	IL	39.125573	-88.45609
Chadwick	Chadwick	IL	41.97068	-89.87508
Chicago	Chicago	IL	41.990631	-87.6667
Plainville	Plainville	IL	39.795818	-91.16751
Crossville	Crossville	IL	38.160972	-88.03291
Wayne City	Wayne City	IL	38.34239	-88.58448
New Berlin	New Berlin	IL	39.735761	-89.88669
McConnell	McConnell	IL	42.4447	-89.72708
Schaumburg	Schaumburg	IL	42.067809	-88.10828
Sheridan	Sheridan	IL	41.527585	-88.68292
Rock Falls	Rock Falls	IL	41.759473	-89.69452
Beason	Beason	IL	40.139482	-89.2073
Marion	Marion	IL	37.724504	-88.92968
Petersburg	Petersburg	IL	40.008726	-89.85029
Towanda	Towanda	IL	40.574936	-88.88696
Palatine	Palatine	IL	41.811929	-87.68732
Hoopeston	Hoopeston	IL	40.465869	-87.66766
Maryville	Maryville	IL	38.726548	-89.9572
Fowler	Fowler	IL	39.98152	-91.25754
Roanoke	Roanoke	IL	40.795911	-89.19419
Clay City	Clay City	IL	38.689663	-88.35141
Coal Valley	Coal Valley	IL	41.439784	-90.428
Elgin	Elgin	IL	42.034776	-88.32393
Lovington	Lovington	IL	39.724744	-88.62995
Schaumburg	Schaumburg	IL	41.811929	-87.68732
Stanford	Stanford	IL	40.426186	-89.2107
Radom	Radom	IL	38.282464	-89.19356
Chicago Heights	Chicago Heights	IL	41.811929	-87.68732
Lena	Lena	IL	42.381064	-89.83062
Hampton	Hampton	IL	41.554666	-90.40987
Sorento	Sorento	IL	38.996375	-89.57044
Smithboro	Smithboro	IL	38.887748	-89.32248
Dement	Dement	IL	41.964197	-88.951205
Loogootee	Loogootee	IL	38.911662	-88.87747
Springfield	Springfield	IL	39.806089	-89.586356
Woodlawn	Woodlawn	IL	38.335675	-89.04867
Hamletsburg	Hamletsburg	IL	37.333591	-88.561428
Bonfield	Bonfield	IL	41.147958	-88.06412
Indianola	Indianola	IL	39.92804	-87.73629
New Windsor	New Windsor	IL	41.200936	-90.45631
Dalton City	Dalton City	IL	39.719012	-88.82227
Keithsburg	Keithsburg	IL	41.092081	-90.92743
Coatsburg	Coatsburg	IL	40.034398	-91.16278
Saint Peter	Saint Peter	IL	38.875494	-88.89365
Champaign	Champaign	IL	40.139946	-88.196102
Mendon	Mendon	IL	40.094396	-91.26558
Rock City	Rock City	IL	42.407384	-89.46228
Raritan	Raritan	IL	40.696535	-90.82607
Joliet	Joliet	IL	41.52543	-88.084208
Robinson	Robinson	IL	39.004728	-87.7495
Clarendon Hills	Clarendon Hills	IL	41.779533	-87.95798
Avon	Avon	IL	40.661165	-90.43908
Champaign	Champaign	IL	40.113139	-88.361251
Hinsdale	Hinsdale	IL	41.839679	-88.088716
Kingston Mines	Kingston Mines	IL	40.558329	-89.76891
Hamel	Hamel	IL	38.889879	-89.84638
Staunton	Staunton	IL	39.011612	-89.78855
Springfield	Springfield	IL	39.757896	-89.66363
Salem	Salem	IL	38.623789	-88.95361
Sterling	Sterling	IL	41.813776	-89.70537
New Holland	New Holland	IL	40.186852	-89.56053
Rockford	Rockford	IL	42.245596	-88.97586
Glasford	Glasford	IL	40.577778	-89.8297
Burlington	Burlington	IL	42.052112	-88.54829
Bismarck	Bismarck	IL	40.231345	-87.58163
Newark	Newark	IL	41.529433	-88.53552
Iroquois	Iroquois	IL	40.827011	-87.58356
Roseville	Roseville	IL	40.70595	-90.65724
Sandwich	Sandwich	IL	41.645393	-88.63052
Oconee	Oconee	IL	39.279357	-89.10462
Herscher	Herscher	IL	41.05113	-88.08957
Germantown	Germantown	IL	38.554515	-89.5631
Springfield	Springfield	IL	39.749457	-89.606017
Saunemin	Saunemin	IL	40.885397	-88.39957
Kent	Kent	IL	42.320303	-89.91237
Pleasant Plains	Pleasant Plains	IL	39.847253	-89.88059
Dongola	Dongola	IL	37.363981	-89.15783
Palatine	Palatine	IL	42.097976	-88.014072
Aurora	Aurora	IL	41.839679	-88.088716
East Galesburg	East Galesburg	IL	40.94399	-90.31205
White Heath	White Heath	IL	40.10311	-88.49744
Lerna	Lerna	IL	39.393267	-88.28118
Vermont	Vermont	IL	40.288318	-90.429294
Alpha	Alpha	IL	41.189123	-90.36813
Knoxville	Knoxville	IL	40.910079	-90.27171
Chicago	Chicago	IL	41.801525	-87.60215
Ludlow	Ludlow	IL	40.375602	-88.11524
Pocahontas	Pocahontas	IL	38.812744	-89.54888
Thornton	Thornton	IL	41.570384	-87.60839
Apple River	Apple River	IL	42.472458	-90.12098
Campus	Campus	IL	41.024846	-88.30797
Ringwood	Ringwood	IL	42.405464	-88.30274
Oak Lawn	Oak Lawn	IL	41.715082	-87.7546
Prophetstown	Prophetstown	IL	41.612038	-89.93036
Maunie	Maunie	IL	38.032574	-88.04663
Peoria	Peoria	IL	40.744179	-89.718401
Bellflower	Bellflower	IL	40.336763	-88.52604
Wood River	Wood River	IL	38.860447	-90.09418
Somonauk	Somonauk	IL	41.645998	-88.69
Bryant	Bryant	IL	40.466397	-90.09632
Kankakee	Kankakee	IL	41.114132	-87.86784
Lynn Center	Lynn Center	IL	41.28595	-90.36117
Grand Chain	Grand Chain	IL	37.239385	-88.95184
Peoria	Peoria	IL	40.744179	-89.718401
Deer Creek	Deer Creek	IL	40.615875	-89.32778
Secor	Secor	IL	40.738973	-89.13579
Carbondale	Carbondale	IL	37.758646	-89.415831
Chicago	Chicago	IL	41.776983	-87.6404
Basco	Basco	IL	40.319528	-91.20483
Bluff Springs	Bluff Springs	IL	39.979614	-90.352444
Emden	Emden	IL	40.291512	-89.47436
Wheaton	Wheaton	IL	41.839679	-88.088716
Chicago	Chicago	IL	41.880682	-87.6877
Viola	Viola	IL	41.195087	-90.57923
Peoria	Peoria	IL	40.742537	-89.627948
Chicago	Chicago	IL	41.811929	-87.68732
Villa Ridge	Villa Ridge	IL	37.152714	-89.1632
Chicago	Chicago	IL	41.744834	-87.60444
Rockford	Rockford	IL	42.325364	-89.170527
Hanna City	Hanna City	IL	40.690205	-89.78042
Pittsfield	Pittsfield	IL	39.606349	-90.78642
Simpson	Simpson	IL	37.458878	-88.69466
Sailor Springs	Sailor Springs	IL	38.764802	-88.35875
Plymouth	Plymouth	IL	40.304799	-90.88699
Chesterfield	Chesterfield	IL	39.260146	-90.06937
Iuka	Iuka	IL	38.594744	-88.77464
Cherry Valley	Cherry Valley	IL	42.222221	-88.9543
Okawville	Okawville	IL	38.439574	-89.5286
Mode	Mode	IL	39.272317	-88.75932
Herrin	Herrin	IL	37.803216	-89.058643
Chapin	Chapin	IL	39.770936	-90.39307
Romeoville	Romeoville	IL	41.64273	-88.09934
Leonore	Leonore	IL	41.190024	-88.98238
Lake Zurich	Lake Zurich	IL	42.199957	-88.05859
Hoffman	Hoffman	IL	38.540238	-89.26294
Williamsfield	Williamsfield	IL	40.929497	-90.01888
Akin	Akin	IL	37.994296	-88.941665
Arlington Heights	Arlington Heights	IL	42.069327	-87.98464
Round Lake	Round Lake	IL	42.366253	-88.09647
Milledgeville	Milledgeville	IL	41.965904	-89.75896
Tiskilwa	Tiskilwa	IL	41.279825	-89.50492
Atwood	Atwood	IL	39.809929	-88.45309
Union	Union	IL	42.229437	-88.52606
Pecatonica	Pecatonica	IL	42.307665	-89.34453
Milton	Milton	IL	39.564228	-90.651349
Harristown	Harristown	IL	39.867151	-89.11324
Polo	Polo	IL	41.989386	-89.59084
Greenville	Greenville	IL	38.889355	-89.40987
Dix	Dix	IL	38.441538	-88.96888
Chicago	Chicago	IL	41.971044	-87.75869
Stockland	Stockland	IL	40.613942	-87.59259
Forreston	Forreston	IL	42.119619	-89.58242
Peoria	Peoria	IL	40.785653	-89.617657
Chicago	Chicago	IL	41.811929	-87.68732
Irving	Irving	IL	39.205747	-89.40909
Aurora	Aurora	IL	41.766029	-88.35254
Chicago	Chicago	IL	41.811929	-87.68732
Harrisburg	Harrisburg	IL	37.725834	-88.54208
Hammond	Hammond	IL	39.806718	-88.6087
Paloma	Paloma	IL	40.028595	-91.21286
Tamms	Tamms	IL	37.240381	-89.28271
Findlay	Findlay	IL	39.529092	-88.7821
Melvin	Melvin	IL	40.562833	-88.25053
Elmwood Park	Elmwood Park	IL	41.922681	-87.80805
Carol Stream	Carol Stream	IL	41.839679	-88.088716
Harwood Heights	Harwood Heights	IL	41.96418	-87.81686
Patoka	Patoka	IL	38.751756	-89.09581
Hamburg	Hamburg	IL	39.236358	-90.71359
Palatine	Palatine	IL	41.811929	-87.68732
Eagarville	Eagarville	IL	39.110422	-89.78428
Lockport	Lockport	IL	41.598235	-88.02753
Orland Park	Orland Park	IL	41.623532	-87.83542
Carlock	Carlock	IL	40.600045	-89.13627
Edwardsville	Edwardsville	IL	38.733748	-89.94305
Farmersville	Farmersville	IL	39.442669	-89.64068
Palos Heights	Palos Heights	IL	41.663548	-87.79148
Pawnee	Pawnee	IL	39.580159	-89.54402
Easton	Easton	IL	40.214759	-89.87721
Evanston	Evanston	IL	42.058629	-87.684506
Brookfield	Brookfield	IL	41.822681	-87.84753
Chicago	Chicago	IL	41.811929	-87.68732
Washington	Washington	IL	40.701037	-89.44294
Hume	Hume	IL	39.797661	-87.87017
Chicago	Chicago	IL	41.696283	-87.69912
Rockford	Rockford	IL	42.306666	-89.00839
Osco	Osco	IL	41.372408	-90.27031
Bowen	Bowen	IL	40.232385	-91.05746
Elwood	Elwood	IL	41.429681	-88.10284
Shirland	Shirland	IL	42.325364	-89.170527
Kinderhook	Kinderhook	IL	39.700245	-91.14564
Vermilion	Vermilion	IL	39.679882	-87.750216
Shattuc	Shattuc	IL	38.647775	-89.20166
Shelbyville	Shelbyville	IL	39.409126	-88.80153
Texico	Texico	IL	38.455562	-88.8232
Bulpitt	Bulpitt	IL	39.591537	-89.42755
Literberry	Literberry	IL	39.858933	-90.200747
Xenia	Xenia	IL	38.661358	-88.64744
Catlin	Catlin	IL	40.059068	-87.70376
Plato Center	Plato Center	IL	42.025776	-88.425931
Clare	Clare	IL	41.998231	-88.84223
Chicago	Chicago	IL	41.946431	-87.74576
New Canton	New Canton	IL	39.599949	-91.09115
Energy	Energy	IL	37.774517	-89.02583
Franklin Grove	Franklin Grove	IL	41.84036	-89.31176
Moline	Moline	IL	41.490333	-90.50006
Peoria	Peoria	IL	40.640002	-89.651987
Lebanon	Lebanon	IL	38.601648	-89.81317
Valmeyer	Valmeyer	IL	38.299904	-90.30833
Greenup	Greenup	IL	39.25287	-88.13528
Mackinaw	Mackinaw	IL	40.533634	-89.34345
Brownstown	Brownstown	IL	39.018987	-88.96134
Vienna	Vienna	IL	37.422815	-88.88016
Bensenville	Bensenville	IL	41.956479	-87.95117
Steeleville	Steeleville	IL	38.002188	-89.66723
Winnetka	Winnetka	IL	42.104127	-87.75016
Chicago	Chicago	IL	41.811929	-87.68732
Barstow	Barstow	IL	41.518317	-90.35597
Triumph	Triumph	IL	41.499089	-89.021881
Peoria	Peoria	IL	40.702487	-89.589797
Sublette	Sublette	IL	41.638122	-89.26889
Philo	Philo	IL	39.989282	-88.15174
Depue	Depue	IL	41.321814	-89.3086
Schaumburg	Schaumburg	IL	42.051927	-88.04814
Peoria	Peoria	IL	40.744179	-89.718401
Collinsville	Collinsville	IL	38.679282	-89.99407
Sesser	Sesser	IL	38.085829	-89.04697
Woodstock	Woodstock	IL	42.316121	-88.43884
Pulaski	Pulaski	IL	37.214012	-89.21039
Chicago	Chicago	IL	42.009731	-87.66938
Kane	Kane	IL	39.192501	-90.34541
Chicago	Chicago	IL	41.696433	-87.65993
Pesotum	Pesotum	IL	39.907919	-88.27977
Du Bois	Du Bois	IL	38.22669	-89.20884
Oak Lawn	Oak Lawn	IL	41.811929	-87.68732
Bloomington	Bloomington	IL	40.519236	-88.864303
Creal Springs	Creal Springs	IL	37.613705	-88.83922
Galva	Galva	IL	41.172197	-90.03901
Forest City	Forest City	IL	40.35756	-89.82389
Seymour	Seymour	IL	40.107548	-88.42487
Hometown	Hometown	IL	41.730533	-87.73198
Le Roy	Le Roy	IL	40.345004	-88.75786
Perry	Perry	IL	39.781349	-90.74617
Dennison	Dennison	IL	39.452478	-87.57092
Springfield	Springfield	IL	39.749457	-89.606017
Chicago	Chicago	IL	41.97508	-87.8163
Burnside	Burnside	IL	40.513153	-91.12851
South Elgin	South Elgin	IL	41.99215	-88.30609
Palos Park	Palos Park	IL	41.664582	-87.84378
Peoria	Peoria	IL	40.677987	-89.60864
Forest Park	Forest Park	IL	41.871331	-87.81235
Watson	Watson	IL	39.012089	-88.56383
Gifford	Gifford	IL	40.310063	-88.01922
Caledonia	Caledonia	IL	42.376423	-88.9325
Cornland	Cornland	IL	39.936817	-89.40159
Owaneco	Owaneco	IL	39.476356	-89.21607
Greenview	Greenview	IL	40.087711	-89.72066
Edelstein	Edelstein	IL	40.936244	-89.62
Miller City	Miller City	IL	37.097546	-89.33547
Aviston	Aviston	IL	38.607817	-89.60516
Chicago	Chicago	IL	42.096428	-87.71791
Milford	Milford	IL	40.624025	-87.69618
Morton	Morton	IL	40.613788	-89.46031
Sawyerville	Sawyerville	IL	39.078047	-89.80626
Unity	Unity	IL	37.150263	-89.27351
Hazel Crest	Hazel Crest	IL	41.574034	-87.67857
Peoria	Peoria	IL	40.744179	-89.718401
Wilmington	Wilmington	IL	41.298186	-88.1464
Brookport	Brookport	IL	37.140282	-88.58186
Mokena	Mokena	IL	41.536782	-87.88582
Tamaroa	Tamaroa	IL	38.127516	-89.22926
Manteno	Manteno	IL	41.250408	-87.85125
National Stock Yards	National Stock Yards	IL	38.6516	-90.163909
Carol Stream	Carol Stream	IL	41.839679	-88.088716
Waukegan	Waukegan	IL	42.322814	-87.610053
Darien	Darien	IL	41.745623	-87.98108
Green Valley	Green Valley	IL	40.40943	-89.65687
Addieville	Addieville	IL	38.377193	-89.55998
Glencoe	Glencoe	IL	42.130976	-87.76252
Hebron	Hebron	IL	42.468318	-88.43125
Nachusa	Nachusa	IL	41.830896	-89.39613
Scheller	Scheller	IL	38.164136	-89.11908
Bellwood	Bellwood	IL	41.882924	-87.87642
Schiller Park	Schiller Park	IL	41.95683	-87.87193
Normal	Normal	IL	40.51032	-88.99803
Ellery	Ellery	IL	38.361654	-88.16484
Cortland	Cortland	IL	41.921121	-88.6899
Joliet	Joliet	IL	41.50798	-88.10553
Kinsman	Kinsman	IL	41.168761	-88.55792
Elizabeth	Elizabeth	IL	42.298773	-90.17778
Winslow	Winslow	IL	42.475078	-89.81607
Chatham	Chatham	IL	39.676558	-89.69902
Kaneville	Kaneville	IL	41.936977	-88.420178
Calumet City	Calumet City	IL	41.614188	-87.54638
Hurst	Hurst	IL	37.835684	-89.14346
Mount Erie	Mount Erie	IL	38.48679	-88.21636
Poplar Grove	Poplar Grove	IL	42.364394	-88.84665
Waggoner	Waggoner	IL	39.370091	-89.67132
Cicero	Cicero	IL	41.844382	-87.7599
Rock Island	Rock Island	IL	41.4903	-90.56956
Chicago	Chicago	IL	41.776633	-87.66854
Chicago	Chicago	IL	41.940832	-87.65852
Astoria	Astoria	IL	40.234249	-90.32941
Richland	Richland	IL	40.928331	-89.348163
Hutsonville	Hutsonville	IL	39.113033	-87.67563
Peoria	Peoria	IL	40.689637	-89.592597
Ashland	Ashland	IL	39.891861	-90.03125
Ridott	Ridott	IL	42.298218	-89.47652
Ashton	Ashton	IL	41.865034	-89.21536
Cherry	Cherry	IL	41.4276	-89.21243
Saint Charles	Saint Charles	IL	41.944577	-88.38326
Oak Brook	Oak Brook	IL	41.837716	-87.96041
Chicago	Chicago	IL	41.945681	-87.7048
Chicago	Chicago	IL	41.811929	-87.68732
Rossville	Rossville	IL	40.372447	-87.6603
Highland	Highland	IL	38.752017	-89.67478
Mount Carmel	Mount Carmel	IL	38.415676	-87.81077
Long Grove	Long Grove	IL	42.198674	-88.041875
Cedarville	Cedarville	IL	42.375078	-89.63382
Fulton	Fulton	IL	41.863049	-90.14524
Forsyth	Forsyth	IL	39.925806	-88.95928
Chicago	Chicago	IL	41.695434	-87.62255
Barnhill	Barnhill	IL	38.268959	-88.34267
Milan	Milan	IL	41.426583	-90.57639
Fiatt	Fiatt	IL	40.449305	-90.161761
Roodhouse	Roodhouse	IL	39.481469	-90.33999
Nashville	Nashville	IL	38.346578	-89.38453
Wonder Lake	Wonder Lake	IL	42.384504	-88.3495
Rosiclare	Rosiclare	IL	37.426076	-88.34815
Henderson	Henderson	IL	41.02572	-90.35566
Tovey	Tovey	IL	39.588585	-89.44945
Galena	Galena	IL	42.400744	-90.39738
Standard City	Standard City	IL	39.350726	-89.78689
Chicago	Chicago	IL	41.850532	-87.6699
Chicago	Chicago	IL	41.819833	-87.61269
Georgetown	Georgetown	IL	39.97412	-87.63138
Piper City	Piper City	IL	40.779834	-88.18012
Chambersburg	Chambersburg	IL	39.817702	-90.66923
Niles	Niles	IL	42.032379	-87.81563
Mchenry	Mchenry	IL	42.348406	-88.24769
Streator	Streator	IL	41.129482	-88.83666
Mozier	Mozier	IL	39.328077	-90.76896
Chicago	Chicago	IL	41.811929	-87.68732
Lomax	Lomax	IL	40.685436	-91.05207
Fidelity	Fidelity	IL	39.155608	-90.1649
Chicago	Chicago	IL	41.922682	-87.65432
Savoy	Savoy	IL	40.061694	-88.25023
Creve Coeur	Creve Coeur	IL	40.643846	-89.59908
Wellington	Wellington	IL	40.543697	-87.66475
Parkersburg	Parkersburg	IL	38.588301	-88.03692
Springfield	Springfield	IL	39.80095	-89.64999
Rockford	Rockford	IL	42.303365	-89.08246
Bloomington	Bloomington	IL	40.459584	-88.96939
Loami	Loami	IL	39.669508	-89.84805
Kell	Kell	IL	38.516025	-88.91954
Kenilworth	Kenilworth	IL	42.088128	-87.716
Tinley Park	Tinley Park	IL	41.5738	-87.80389
Cedar Point	Cedar Point	IL	41.261853	-89.12523
Sumner	Sumner	IL	38.732726	-87.85152
Shumway	Shumway	IL	39.194021	-88.6656
Modoc	Modoc	IL	37.988745	-90.00785
Decatur	Decatur	IL	39.828586	-88.92907
Minooka	Minooka	IL	41.473553	-88.29167
Buncombe	Buncombe	IL	37.477639	-89.02992
McLean	McLean	IL	40.321811	-89.15864
Dieterich	Dieterich	IL	39.01077	-88.428
Springfield	Springfield	IL	39.749457	-89.606017
Neponset	Neponset	IL	41.280262	-89.79442
Patterson	Patterson	IL	39.477337	-90.48002
Red Bud	Red Bud	IL	38.214515	-89.98785
Frankfort Heights	Frankfort Heights	IL	37.994296	-88.941665
Robbins	Robbins	IL	41.642933	-87.70814
Morris	Morris	IL	41.370642	-88.40749
Chicago	Chicago	IL	41.811929	-87.68732
Good Hope	Good Hope	IL	40.579737	-90.64691
Taylorville	Taylorville	IL	39.548928	-89.29692
Noble	Noble	IL	38.696562	-88.23716
Mount Prospect	Mount Prospect	IL	42.065427	-87.93621
New Burnside	New Burnside	IL	37.582136	-88.76394
Walsh	Walsh	IL	38.049616	-89.80775
Dahlgren	Dahlgren	IL	38.190536	-88.62439
Loda	Loda	IL	40.526477	-88.0821
Thawville	Thawville	IL	40.6756	-88.10761
Homer	Homer	IL	40.028716	-87.9576
East Lynn	East Lynn	IL	40.465251	-87.80112
Carol Stream	Carol Stream	IL	41.918578	-88.13688
Libertyville	Libertyville	IL	42.322814	-87.610053
Ashkum	Ashkum	IL	40.883641	-87.9667
Maquon	Maquon	IL	40.776079	-90.1938
Smithfield	Smithfield	IL	40.500643	-90.31576
Equality	Equality	IL	37.726738	-88.372434
Emma	Emma	IL	37.97622	-88.120182
Thomasboro	Thomasboro	IL	40.243692	-88.17296
Saint Jacob	Saint Jacob	IL	38.706847	-89.77739
Beecher City	Beecher City	IL	39.167788	-88.8255
Carbondale	Carbondale	IL	37.707763	-89.19246
New Baden	New Baden	IL	38.520285	-89.6807
Industry	Industry	IL	40.324365	-90.60351
Humboldt	Humboldt	IL	39.59477	-88.34792
El Paso	El Paso	IL	40.731662	-89.03978
Sciota	Sciota	IL	40.581413	-90.7612
Divernon	Divernon	IL	39.568077	-89.65467
Grantsburg	Grantsburg	IL	37.342538	-88.73381
Rockford	Rockford	IL	42.25517	-89.1297
Chillicothe	Chillicothe	IL	40.914377	-89.50654
Ohlman	Ohlman	IL	39.261791	-89.421584
South Pekin	South Pekin	IL	40.49271	-89.65194
Annawan	Annawan	IL	41.412944	-89.92236
Fairbury	Fairbury	IL	40.741158	-88.51546
Bondville	Bondville	IL	40.112616	-88.3708
Kinmundy	Kinmundy	IL	38.768452	-88.82814
New Athens	New Athens	IL	38.318253	-89.88852
Springfield	Springfield	IL	39.749457	-89.606017
Oquawka	Oquawka	IL	40.957929	-90.93608
Oakwood	Oakwood	IL	40.121098	-87.74657
Westchester	Westchester	IL	41.851257	-87.88351
Pontiac	Pontiac	IL	40.884053	-88.63376
Littleton	Littleton	IL	40.249363	-90.66845
Oakley	Oakley	IL	39.869841	-88.81261
Mounds	Mounds	IL	37.119739	-89.20174
Lake Villa	Lake Villa	IL	42.410687	-88.05462
Bath	Bath	IL	40.167991	-90.16313
Urbana	Urbana	IL	40.109647	-88.21246
Villa Grove	Villa Grove	IL	39.858506	-88.15018
Allendale	Allendale	IL	38.528202	-87.72913
Dunfermline	Dunfermline	IL	40.490965	-90.03285
Milton	Milton	IL	39.563599	-90.64813
Olive Branch	Olive Branch	IL	37.159227	-89.34153
Brocton	Brocton	IL	39.706131	-87.91691
Barry	Barry	IL	39.704649	-91.0368
Peoria	Peoria	IL	40.699937	-89.595147
Ashmore	Ashmore	IL	39.529566	-88.03349
Worden	Worden	IL	38.932347	-89.84608
Mount Sterling	Mount Sterling	IL	39.983824	-90.74134
Ohio	Ohio	IL	41.543342	-89.44078
Durand	Durand	IL	42.436585	-89.30394
Standard	Standard	IL	41.25645	-89.17901
Jewett	Jewett	IL	39.190088	-88.2601
New Bedford	New Bedford	IL	41.513879	-89.71842
Flanagan	Flanagan	IL	40.882858	-88.85739
East Saint Louis	East Saint Louis	IL	38.598175	-90.07575
Midlothian	Midlothian	IL	41.631683	-87.73309
Antioch	Antioch	IL	42.46617	-88.09995
Butler	Butler	IL	39.212833	-89.55969
Peoria	Peoria	IL	40.678037	-89.62737
Collison	Collison	IL	40.2159	-87.78418
Davis	Davis	IL	42.440374	-89.40925
Shabbona	Shabbona	IL	41.769322	-88.86858
Danville	Danville	IL	40.175463	-87.6124
Springfield	Springfield	IL	39.749457	-89.606017
Ullin	Ullin	IL	37.272477	-89.17123
East Saint Louis	East Saint Louis	IL	38.59035	-90.13276
Timewell	Timewell	IL	39.983573	-90.8842
Chicago	Chicago	IL	41.875882	-87.65114
Lanark	Lanark	IL	42.111421	-89.82436
Belleville	Belleville	IL	38.439983	-89.983521
Lee Center	Lee Center	IL	41.747471	-89.27713
Thebes	Thebes	IL	37.223589	-89.42243
Peotone	Peotone	IL	41.335445	-87.785286
Chicago	Chicago	IL	41.991381	-87.70378
Chicago	Chicago	IL	41.811929	-87.68732
East Dubuque	East Dubuque	IL	42.483971	-90.58945
Carlock	Carlock	IL	40.582108	-89.128871
Atlanta	Atlanta	IL	40.256893	-89.25013
Cairo	Cairo	IL	37.025325	-89.18974
Bement	Bement	IL	39.918042	-88.56139
Jonesboro	Jonesboro	IL	37.42084	-89.31217
Skokie	Skokie	IL	42.033313	-87.75764
Winthrop Harbor	Winthrop Harbor	IL	42.48067	-87.83018
Worth	Worth	IL	41.688827	-87.79265
Ridgway	Ridgway	IL	37.796784	-88.24393
Aurora	Aurora	IL	41.839679	-88.088716
Dow	Dow	IL	38.997296	-90.3405
Golden	Golden	IL	40.112726	-91.02632
Ransom	Ransom	IL	41.169068	-88.6494
Peoria	Peoria	IL	40.642049	-89.67147
Roscoe	Roscoe	IL	42.419097	-89.00407
Champaign	Champaign	IL	40.139946	-88.196102
Palatine	Palatine	IL	42.097976	-88.014072
San Jose	San Jose	IL	40.29916	-89.60101
Onarga	Onarga	IL	40.706634	-87.99624
Sullivan	Sullivan	IL	39.582494	-88.6021
Ingraham	Ingraham	IL	38.835884	-88.33505
Leland	Leland	IL	41.620636	-88.78895
Chicago	Chicago	IL	41.99623	-87.81091
Saint Libory	Saint Libory	IL	38.363228	-89.713921
Nebo	Nebo	IL	39.440654	-90.77809
Naperville	Naperville	IL	41.839679	-88.088716
Chicago	Chicago	IL	41.811929	-87.68732
Saint Anne	Saint Anne	IL	41.045785	-87.68963
Dowell	Dowell	IL	37.940448	-89.24091
Barrington	Barrington	IL	42.160791	-88.15231
Fenton	Fenton	IL	41.738551	-90.06922
Macomb	Macomb	IL	40.456986	-90.6681
Brussels	Brussels	IL	38.968323	-90.58121
Caseyville	Caseyville	IL	38.636749	-90.01763
Berwyn	Berwyn	IL	41.836981	-87.79095
Moweaqua	Moweaqua	IL	39.617542	-89.00559
Streamwood	Streamwood	IL	42.023977	-88.17657
Chicago	Chicago	IL	41.811929	-87.68732
Monticello	Monticello	IL	40.0334	-88.57375
West Union	West Union	IL	39.229885	-87.6664
Troy Grove	Troy Grove	IL	41.466102	-89.07794
Lombard	Lombard	IL	41.875429	-88.01723
Aroma Park	Aroma Park	IL	41.078981	-87.80536
Bloomington	Bloomington	IL	40.477286	-88.99592
Blackstone	Blackstone	IL	41.064946	-88.66836
Newman	Newman	IL	39.802798	-87.99744
Dalzell	Dalzell	IL	41.350864	-89.17366
Woodridge	Woodridge	IL	41.75253	-88.04864
South Beloit	South Beloit	IL	42.484835	-89.02756
Galesburg	Galesburg	IL	40.932207	-90.214412
Ferris	Ferris	IL	40.467994	-91.17125
Fox Lake	Fox Lake	IL	42.409445	-88.17822
Buffalo Grove	Buffalo Grove	IL	42.167638	-87.96393
Franklin Park	Franklin Park	IL	41.93548	-87.87468
Chicago Ridge	Chicago Ridge	IL	41.702482	-87.77869
Hinsdale	Hinsdale	IL	41.839679	-88.088716
Oregon	Oregon	IL	42.00663	-89.33932
Millstadt	Millstadt	IL	38.463718	-90.09831
Hull	Hull	IL	39.709855	-91.22914
Springfield	Springfield	IL	39.852361	-89.541017
Keensburg	Keensburg	IL	38.351613	-87.86464
Ava	Ava	IL	37.871546	-89.50721
Rockford	Rockford	IL	42.325364	-89.170527
Channahon	Channahon	IL	41.439518	-88.20898
Shobonier	Shobonier	IL	38.859515	-89.054
Leaf River	Leaf River	IL	42.139244	-89.3968
River Forest	River Forest	IL	41.893031	-87.81718
Palmer	Palmer	IL	39.465887	-89.39095
Springfield	Springfield	IL	39.819	-89.64379
Solon Mills	Solon Mills	IL	42.442519	-88.276047
Lovejoy	Lovejoy	IL	38.6565	-90.16643
Rock Island	Rock Island	IL	41.466752	-90.58714
Louisville	Louisville	IL	38.806292	-88.48012
Brimfield	Brimfield	IL	40.816162	-89.84131
Blue Island	Blue Island	IL	41.656592	-87.68154
Oak Park	Oak Park	IL	41.811929	-87.68732
Camargo	Camargo	IL	39.783794	-88.13861
Chicago	Chicago	IL	41.809299	-87.7105
Ellis Grove	Ellis Grove	IL	38.011729	-89.89007
Chicago	Chicago	IL	41.880446	-87.63014
Biggsville	Biggsville	IL	40.854865	-90.85925
Warrensburg	Warrensburg	IL	39.940934	-89.06707
Palestine	Palestine	IL	39.006924	-87.6117
Greenfield	Greenfield	IL	39.362285	-90.22147
Cambria	Cambria	IL	37.782057	-89.12184
Belleville	Belleville	IL	38.532311	-89.93996
West Point	West Point	IL	40.233504	-91.19727
Topeka	Topeka	IL	40.340202	-89.90929
Centralia	Centralia	IL	38.523736	-89.1257
Scioto Mills	Scioto Mills	IL	42.355422	-89.667939
Springfield	Springfield	IL	39.848201	-89.536369
Techny	Techny	IL	42.116377	-87.812064
Sherman	Sherman	IL	39.901588	-89.58805
Lee	Lee	IL	40.553989	-90.355505
Elwin	Elwin	IL	39.777583	-88.97972
Campbell Hill	Campbell Hill	IL	37.933269	-89.55501
Naperville	Naperville	IL	41.764779	-88.14579
Bloomington	Bloomington	IL	40.477735	-88.954174
Stone Park	Stone Park	IL	41.90158	-87.88046
Washburn	Washburn	IL	40.920631	-89.29547
Morton Grove	Morton Grove	IL	42.041999	-87.78882
Homewood	Homewood	IL	41.556734	-87.66464
Irvington	Irvington	IL	38.436236	-89.16184
Laura	Laura	IL	40.953365	-89.94259
Dewitt	Dewitt	IL	40.193547	-88.79575
Rushville	Rushville	IL	40.134957	-90.55222
Elliott	Elliott	IL	40.465744	-88.26994
Kewanee	Kewanee	IL	41.247536	-89.92848
Bloomington	Bloomington	IL	40.461431	-88.953015
Shirley	Shirley	IL	40.399689	-89.06088
Herrin	Herrin	IL	37.804014	-89.02702
Decatur	Decatur	IL	39.844086	-88.95327
Springfield	Springfield	IL	39.7715	-89.63612
Waterloo	Waterloo	IL	38.325969	-90.14606
Schaumburg	Schaumburg	IL	42.065827	-88.21399
Karbers Ridge	Karbers Ridge	IL	37.500757	-88.238292
Mount Carroll	Mount Carroll	IL	42.1009	-89.98255
Saint Joseph	Saint Joseph	IL	40.124202	-88.03401
Yorkville	Yorkville	IL	41.631342	-88.43996
Sparland	Sparland	IL	41.036199	-89.48336
Mundelein	Mundelein	IL	42.263623	-88.01172
Peoria	Peoria	IL	40.744179	-89.718401
Sibley	Sibley	IL	40.584937	-88.38028
Roxana	Roxana	IL	38.8494	-90.08536
Montrose	Montrose	IL	39.183055	-88.3404
Christopher	Christopher	IL	37.973175	-89.05291
Trilla	Trilla	IL	39.35239	-88.33275
Chicago	Chicago	IL	41.953256	-87.6629
Ashley	Ashley	IL	38.319427	-89.19145
Freeman Spur	Freeman Spur	IL	37.80308	-89.009201
Carol Stream	Carol Stream	IL	41.839679	-88.088716
Troy	Troy	IL	38.725498	-89.88891
Chestnut	Chestnut	IL	40.05232	-89.18832
Bristol	Bristol	IL	41.706034	-88.41296
Macedonia	Macedonia	IL	38.041978	-88.73257
Springfield	Springfield	IL	39.749457	-89.606017
Peoria	Peoria	IL	40.709237	-89.63633
Alvin	Alvin	IL	40.293159	-87.61401
Pekin	Pekin	IL	40.554538	-89.609951
Cordova	Cordova	IL	41.697188	-90.30177
Springfield	Springfield	IL	39.7778	-89.67982
Palatine	Palatine	IL	42.143819	-88.02546
O Fallon	O Fallon	IL	38.589849	-89.91207
Westmont	Westmont	IL	41.795358	-87.97778
Chana	Chana	IL	41.982993	-89.2128
Matherville	Matherville	IL	41.260255	-90.60587
Granite City	Granite City	IL	38.720938	-90.11431
Herald	Herald	IL	38.073931	-88.142657
Benld	Benld	IL	39.092526	-89.8029
Kirkwood	Kirkwood	IL	40.867285	-90.75759
Milton	Milton	IL	41.878878	-88.134469
Chicago	Chicago	IL	41.777482	-87.71155
Sugar Grove	Sugar Grove	IL	41.779939	-88.45183
Medora	Medora	IL	39.177478	-90.142329
Rockwood	Rockwood	IL	37.845454	-89.66878
Buda	Buda	IL	41.310471	-89.67662
Peoria	Peoria	IL	40.744179	-89.718401
Wadsworth	Wadsworth	IL	42.428187	-87.92935
Malta	Malta	IL	41.933061	-88.88293
Mound City	Mound City	IL	37.08751	-89.16532
Bingham	Bingham	IL	39.11204	-89.2134
Riverdale	Riverdale	IL	41.649717	-87.63292
Middletown	Middletown	IL	40.088774	-89.56744
Deerfield	Deerfield	IL	42.169325	-87.86556
Elgin	Elgin	IL	42.067101	-88.304994
Renault	Renault	IL	38.153322	-90.13459
Vernon	Vernon	IL	38.804938	-89.08366
Springfield	Springfield	IL	39.749457	-89.606017
Alma	Alma	IL	38.735571	-88.91864
Walnut Hill	Walnut Hill	IL	38.469244	-89.03707
Henry	Henry	IL	41.113829	-89.38486
Palatine	Palatine	IL	41.811929	-87.68732
Belvidere	Belvidere	IL	42.257229	-88.84755
Albers	Albers	IL	38.517125	-89.60258
Chicago	Chicago	IL	41.867532	-87.672553
McLeansboro	McLeansboro	IL	38.090004	-88.53431
Highwood	Highwood	IL	42.205724	-87.81421
Gardner	Gardner	IL	41.174117	-88.30954
Emington	Emington	IL	40.966528	-88.34937
Peoria	Peoria	IL	40.755343	-89.59799
Camp Grove	Camp Grove	IL	41.073398	-89.63015
Buckingham	Buckingham	IL	41.04699	-88.18649
East Saint Louis	East Saint Louis	IL	38.631383	-90.10008
New Haven	New Haven	IL	37.914363	-88.12264
Hoyleton	Hoyleton	IL	38.460331	-89.30296
Woosung	Woosung	IL	41.905844	-89.54255
Stillman Valley	Stillman Valley	IL	42.112207	-89.18633
Joppa	Joppa	IL	37.20812	-88.84304
Berwick	Berwick	IL	40.781504	-90.52901
Loves Park	Loves Park	IL	42.325364	-89.170527
Foosland	Foosland	IL	40.376141	-88.4135
Chicago	Chicago	IL	41.921431	-87.75415
Mason	Mason	IL	38.95232	-88.62883
Vandalia	Vandalia	IL	38.961799	-89.10978
Stonington	Stonington	IL	39.638951	-89.18982
Evanston	Evanston	IL	42.04973	-87.679408
Westfield	Westfield	IL	39.4505	-87.99681
Springfield	Springfield	IL	39.749457	-89.606017
Hillsdale	Hillsdale	IL	41.590161	-90.20392
La Fayette	La Fayette	IL	41.098764	-89.97361
Decatur	Decatur	IL	39.853981	-88.981511
Shawneetown	Shawneetown	IL	37.712847	-88.16553
Chicago	Chicago	IL	41.811929	-87.68732
Toulon	Toulon	IL	41.09638	-89.86649
Hopedale	Hopedale	IL	40.422027	-89.42614
River Grove	River Grove	IL	41.92583	-87.84013
Argenta	Argenta	IL	39.984292	-88.81584
Thompsonville	Thompsonville	IL	37.913984	-88.74922
Alto Pass	Alto Pass	IL	37.571235	-89.33462
Malden	Malden	IL	41.427282	-89.36622
Adrian	Adrian	IL	40.416145	-91.205805
Kincaid	Kincaid	IL	39.58755	-89.41265
Peoria	Peoria	IL	40.709837	-89.563646
Willow Hill	Willow Hill	IL	38.994595	-88.00464
Edinburg	Edinburg	IL	39.66363	-89.39224
Congerville	Congerville	IL	40.619306	-89.22353
Berkeley	Berkeley	IL	41.886794	-87.91052
Yale	Yale	IL	39.122158	-88.01982
Chicago	Chicago	IL	41.886456	-87.62325
Decatur	Decatur	IL	39.853981	-88.981511
Springfield	Springfield	IL	39.778044	-89.646555
Browning	Browning	IL	40.153557	-90.35255
Addison	Addison	IL	41.839679	-88.088716
Aurora	Aurora	IL	41.756129	-88.29699
Cropsey	Cropsey	IL	40.607615	-88.49
Wapella	Wapella	IL	40.240627	-88.96635
North Aurora	North Aurora	IL	41.809387	-88.32931
Farmer City	Farmer City	IL	40.251945	-88.65279
Bolingbrook	Bolingbrook	IL	41.684752	-88.14203
Chicago	Chicago	IL	42.008956	-87.69634
Chandlerville	Chandlerville	IL	40.051603	-90.14057
Mason City	Mason City	IL	40.200537	-89.70427
Farina	Farina	IL	38.857185	-88.7591
Posen	Posen	IL	41.628034	-87.68694
Galatia	Galatia	IL	37.836537	-88.62298
Big Rock	Big Rock	IL	41.75537	-88.54865
Groveland	Groveland	IL	40.590353	-89.54053
Sutter	Sutter	IL	40.240004	-91.35197
Riverton	Riverton	IL	39.85973	-89.52972
Algonquin	Algonquin	IL	42.17315	-88.31849
Dolton	Dolton	IL	41.626839	-87.59865
Justice	Justice	IL	41.746432	-87.83557
New Boston	New Boston	IL	41.223984	-91.0123
Hartford	Hartford	IL	38.833898	-90.09533
Crystal Lake	Crystal Lake	IL	42.226623	-88.33066
Genoa	Genoa	IL	42.10028	-88.6906
Danvers	Danvers	IL	40.528515	-89.19057
Donnellson	Donnellson	IL	39.017877	-89.46415
Breese	Breese	IL	38.620018	-89.5305
Beardstown	Beardstown	IL	40.005505	-90.42314
Fithian	Fithian	IL	40.126299	-87.86871
Janesville	Janesville	IL	39.374287	-88.244487
Grayville	Grayville	IL	38.257064	-88.00353
Hanover	Hanover	IL	42.270426	-90.31077
Scottville	Scottville	IL	39.260862	-89.926068
Dupo	Dupo	IL	38.227604	-89.650381
Lowder	Lowder	IL	39.749457	-89.606017
Galt	Galt	IL	41.788761	-89.76182
Edgewood	Edgewood	IL	38.913064	-88.66404
Sigel	Sigel	IL	39.223922	-88.47715
Harvard	Harvard	IL	42.424338	-88.61431
Elsah	Elsah	IL	38.958848	-90.35383
Kempton	Kempton	IL	40.908942	-88.21304
Wasco	Wasco	IL	41.936977	-88.420178
Crete	Crete	IL	41.439034	-87.61173
Sheffield	Sheffield	IL	41.400837	-89.74444
Penfield	Penfield	IL	40.296282	-87.95553
Browns	Browns	IL	38.378706	-87.97291
Eleroy	Eleroy	IL	42.332038	-89.761171
Towanda	Towanda	IL	40.564323	-88.898663
Grafton	Grafton	IL	38.985138	-90.44563
Flat Rock	Flat Rock	IL	38.869453	-87.66502
Marseilles	Marseilles	IL	41.336202	-88.69727
Sidell	Sidell	IL	39.907331	-87.82587
Decatur	Decatur	IL	39.853981	-88.981511
Sidney	Sidney	IL	40.004053	-88.07693
Richmond	Richmond	IL	42.464639	-88.3028
Olympia Fields	Olympia Fields	IL	41.51829	-87.69274
Hinsdale	Hinsdale	IL	41.839679	-88.088716
Chicago	Chicago	IL	41.900332	-87.66927
Long Point	Long Point	IL	40.990965	-88.88278
Muddy	Muddy	IL	37.801972	-88.548695
Anna	Anna	IL	37.457806	-89.21408
Peoria	Peoria	IL	40.765301	-89.569207
Verona	Verona	IL	41.231718	-88.52659
La Place	La Place	IL	39.800512	-88.71835
Northbrook	Northbrook	IL	41.811929	-87.68732
Alexis	Alexis	IL	41.067549	-90.57994
Thayer	Thayer	IL	39.539071	-89.761
Roselle	Roselle	IL	41.980761	-88.08704
Naperville	Naperville	IL	41.794885	-88.16188
Mendota	Mendota	IL	41.543149	-89.10696
Dupo	Dupo	IL	38.526792	-90.19253
Mulberry Grove	Mulberry Grove	IL	38.931719	-89.27132
Mill Shoals	Mill Shoals	IL	38.219997	-88.3121
Crystal Lake	Crystal Lake	IL	42.324761	-88.452481
Chicago	Chicago	IL	41.971614	-87.70256
Graymont	Graymont	IL	40.877451	-88.7778
Kingston	Kingston	IL	42.102014	-88.76647
Glenarm	Glenarm	IL	39.642083	-89.65936
Millbrook	Millbrook	IL	41.598631	-88.55317
Naperville	Naperville	IL	41.707118	-88.19634
Rockford	Rockford	IL	42.25537	-89.07602
Trenton	Trenton	IL	38.611798	-89.67691
Oraville	Oraville	IL	37.758646	-89.415831
Chicago	Chicago	IL	41.761734	-87.57072
Cullom	Cullom	IL	40.873	-88.28676
Fairview	Fairview	IL	40.642927	-90.17174
Naperville	Naperville	IL	41.839679	-88.088716
Odell	Odell	IL	41.00148	-88.52981
Rochelle	Rochelle	IL	41.935139	-89.06891
Joliet	Joliet	IL	41.54338	-88.11963
Benson	Benson	IL	40.850381	-89.11878
Putnam	Putnam	IL	41.198061	-89.43131
Fisher	Fisher	IL	40.313921	-88.3742
Augusta	Augusta	IL	40.223837	-90.93288
Medinah	Medinah	IL	41.970628	-88.05606
Monee	Monee	IL	41.422555	-87.75531
Pinckneyville	Pinckneyville	IL	38.078231	-89.38796
Morrisonville	Morrisonville	IL	39.430427	-89.44719
Wilmette	Wilmette	IL	42.077178	-87.72373
Manlius	Manlius	IL	41.4547	-89.66966
Bloomington	Bloomington	IL	40.488468	-88.939637
Mapleton	Mapleton	IL	40.619174	-89.72628
Wayne	Wayne	IL	41.953427	-88.25176
Evanston	Evanston	IL	42.030327	-87.68828
Emden	Emden	IL	40.300508	-89.480688
Chicago	Chicago	IL	41.811929	-87.68732
Wenona	Wenona	IL	41.057649	-89.04788
Trivoli	Trivoli	IL	40.691022	-89.89138
Enfield	Enfield	IL	38.101667	-88.33357
Table Grove	Table Grove	IL	40.368358	-90.42469
Ellsworth	Ellsworth	IL	40.450325	-88.72052
Beckemeyer	Beckemeyer	IL	38.605187	-89.43404
Havana	Havana	IL	40.296415	-90.05163
Lincoln'S New Salem	Lincoln'S New Salem	IL	40.031115	-89.786723
Coello	Coello	IL	37.996241	-89.06852
Vermont	Vermont	IL	40.292388	-90.42833
Baylis	Baylis	IL	39.756139	-90.89509
Golden Gate	Golden Gate	IL	38.365545	-88.19454
Junction	Junction	IL	37.703552	-88.26498
Spring Grove	Spring Grove	IL	42.441869	-88.22167
Armstrong	Armstrong	IL	40.27363	-87.88919
Mazon	Mazon	IL	41.243419	-88.40325
Chicago	Chicago	IL	41.818682	-87.743454
Winnebago	Winnebago	IL	42.271385	-89.25099
Illinois City	Illinois City	IL	41.369036	-90.9284
Nilwood	Nilwood	IL	39.397248	-89.80769
Peoria	Peoria	IL	40.744179	-89.718401
Elburn	Elburn	IL	41.876506	-88.46429
Pearl City	Pearl City	IL	42.250987	-89.83571
Rock Island	Rock Island	IL	41.554901	-90.615975
Cameron	Cameron	IL	40.889288	-90.50529
Compton	Compton	IL	41.710715	-89.07807
Bloomington	Bloomington	IL	40.810131	-88.477739
West Liberty	West Liberty	IL	38.868463	-88.05466
Bartlett	Bartlett	IL	41.977477	-88.17257
Mooseheart	Mooseheart	IL	41.823478	-88.3332
Bourbonnais	Bourbonnais	IL	41.170442	-87.86891
Marietta	Marietta	IL	40.503305	-90.41808
Scott Air Force Base	Scott Air Force Base	IL	38.544298	-89.85054
Wilsonville	Wilsonville	IL	39.068901	-89.85425
Orland Park	Orland Park	IL	41.598255	-87.89201
Witt	Witt	IL	39.249272	-89.35236
Lincolnwood	Lincolnwood	IL	42.005331	-87.73545
Camden	Camden	IL	40.147818	-90.74246
Waukegan	Waukegan	IL	42.404272	-87.86525
Schaumburg	Schaumburg	IL	42.037108	-88.10719
New Douglas	New Douglas	IL	38.964162	-89.68226
Kankakee	Kankakee	IL	41.146464	-87.888971
Peoria	Peoria	IL	40.87671	-89.509113
Opdyke	Opdyke	IL	38.281485	-88.7909
Schaumburg	Schaumburg	IL	42.01299	-88.09675
Chicago	Chicago	IL	41.811929	-87.68732
Abingdon	Abingdon	IL	40.802633	-90.39766
Tremont	Tremont	IL	40.513656	-89.47408
Tuscola	Tuscola	IL	39.793493	-88.29184
Peoria	Peoria	IL	40.712887	-89.57904
Seaton	Seaton	IL	41.095037	-90.80998
North Chicago	North Chicago	IL	42.43335	-87.776595
Bensenville	Bensenville	IL	41.839679	-88.088716
Gibson City	Gibson City	IL	40.463079	-88.3731
Armington	Armington	IL	40.341123	-89.32028
Highland Park	Highland Park	IL	42.181875	-87.80956
Goodwine	Goodwine	IL	40.748087	-87.82876
Hardin	Hardin	IL	39.128014	-90.6159
Cisne	Cisne	IL	38.51684	-88.43531
Huntley	Huntley	IL	42.171973	-88.42891
Downs	Downs	IL	40.395487	-88.8498
Martinton	Martinton	IL	40.912916	-87.75589
Rockton	Rockton	IL	42.447856	-89.08485
Cutler	Cutler	IL	38.034281	-89.54537
Plainfield	Plainfield	IL	41.607624	-88.19736
Chicago	Chicago	IL	41.973181	-87.6665
Perks	Perks	IL	37.311333	-89.083056
Williamsville	Williamsville	IL	39.956803	-89.54209
Springfield	Springfield	IL	39.749457	-89.606017
Granville	Granville	IL	41.264159	-89.23655
Waynesville	Waynesville	IL	40.242378	-89.1087
Springfield	Springfield	IL	39.749457	-89.606017
Tallula	Tallula	IL	39.944264	-89.93366
Eldorado	Eldorado	IL	37.822259	-88.44456
Chicago	Chicago	IL	41.811929	-87.68732
Oakford	Oakford	IL	40.095009	-89.96998
Chicago	Chicago	IL	41.879365	-87.72199
Freeport	Freeport	IL	42.300918	-89.63208
Warrenville	Warrenville	IL	41.82552	-88.19452
Loves Park	Loves Park	IL	42.326227	-89.02573
Rochester	Rochester	IL	39.71984	-89.51229
Glen Ellyn	Glen Ellyn	IL	41.839679	-88.088716
Fort Sheridan	Fort Sheridan	IL	42.21196	-87.80808
Chicago	Chicago	IL	41.740483	-87.65282
Thomson	Thomson	IL	41.978758	-90.09248
Bluford	Bluford	IL	38.362934	-88.72896
Glenview Nas	Glenview Nas	IL	41.811929	-87.68732
Chicago	Chicago	IL	41.877589	-87.62818
Birds	Birds	IL	38.710336	-87.703639
Hines	Hines	IL	41.858028	-87.83865
Peoria	Peoria	IL	40.692037	-89.588747
Murdock	Murdock	IL	39.801562	-88.07823
Oak Park	Oak Park	IL	41.893941	-87.78899
Roberts	Roberts	IL	40.625486	-88.18667
Gridley	Gridley	IL	40.740729	-88.88791
Maroa	Maroa	IL	40.027071	-88.96715
Royal	Royal	IL	40.192015	-87.97138
Saint Elmo	Saint Elmo	IL	39.042992	-88.87463
Watseka	Watseka	IL	40.784447	-87.74051
Yates City	Yates City	IL	40.796752	-90.02866
Keyesport	Keyesport	IL	38.761214	-89.29128
Heyworth	Heyworth	IL	40.32122	-88.97442
German Valley	German Valley	IL	42.213851	-89.47449
Kampsville	Kampsville	IL	39.322422	-90.64246
Cache	Cache	IL	37.152775	-89.325581
Hinckley	Hinckley	IL	41.776884	-88.64655
Peoria	Peoria	IL	40.699137	-89.60972
Chicago	Chicago	IL	41.7446	-87.71188
Baileyville	Baileyville	IL	42.199457	-89.59662
Charleston	Charleston	IL	39.496547	-88.17348
Oak Park	Oak Park	IL	41.887981	-87.79562
Chicago	Chicago	IL	41.944454	-87.79654
Arcola	Arcola	IL	39.676634	-88.30284
Maple Park	Maple Park	IL	41.91842	-88.57626
La Salle	La Salle	IL	41.347117	-89.08974
La Grange	La Grange	IL	41.788536	-87.87605
Mattoon	Mattoon	IL	39.474889	-88.37421
Cobden	Cobden	IL	37.540571	-89.25489
Carthage	Carthage	IL	40.414128	-91.11577
Warsaw	Warsaw	IL	40.314446	-91.40638
Lincoln	Lincoln	IL	40.149927	-89.36746
West Chicago	West Chicago	IL	41.839679	-88.088716
Rolling Meadows	Rolling Meadows	IL	42.07506	-88.02508
West Chicago	West Chicago	IL	41.891978	-88.20502
Lee	Lee	IL	41.792378	-88.9516
Delavan	Delavan	IL	40.369256	-89.54251
East Saint Louis	East Saint Louis	IL	38.62855	-90.14609
Warren	Warren	IL	42.491388	-89.98979
Buckley	Buckley	IL	40.598963	-88.03308
Walshville	Walshville	IL	39.053344	-89.59324
Ellisville	Ellisville	IL	40.617275	-90.29556
Opheim	Opheim	IL	41.254936	-90.40384
Springfield	Springfield	IL	39.749457	-89.606017
Schaumburg	Schaumburg	IL	41.811929	-87.68732
Dundas	Dundas	IL	38.830182	-88.09218
Galesburg	Galesburg	IL	40.948073	-90.36871
Bishop Hill	Bishop Hill	IL	41.200711	-90.11832
Alsey	Alsey	IL	39.564501	-90.43698
Loves Park	Loves Park	IL	42.325364	-89.170527
Varna	Varna	IL	41.037822	-89.25682
Colusa	Colusa	IL	40.571353	-91.168221
Lyndon	Lyndon	IL	41.719782	-89.92116
Tampico	Tampico	IL	41.605825	-89.77628
Eldred	Eldred	IL	39.241734	-90.54614
Lenzburg	Lenzburg	IL	38.303147	-89.79161
Coal City	Coal City	IL	41.292011	-88.2783
Grant Park	Grant Park	IL	41.244016	-87.64464
Mark	Mark	IL	41.265597	-89.25106
Arlington Heights	Arlington Heights	IL	41.811929	-87.68732
Dwight	Dwight	IL	41.089453	-88.42783
Glenwood	Glenwood	IL	41.544584	-87.61289
Windsor	Windsor	IL	39.434148	-88.60033
Bloomingdale	Bloomingdale	IL	41.839679	-88.088716
Downers Grove	Downers Grove	IL	41.80348	-88.01827
Naperville	Naperville	IL	41.728738	-88.12824
Wyanet	Wyanet	IL	41.369056	-89.60321
Blandinsville	Blandinsville	IL	40.555678	-90.87087
Oreana	Oreana	IL	39.93706	-88.86332
Carol Stream	Carol Stream	IL	41.839679	-88.088716
Chicago	Chicago	IL	41.882937	-87.62874
Silvis	Silvis	IL	41.501234	-90.41404
Gladstone	Gladstone	IL	40.854247	-90.96542
Lane	Lane	IL	40.122884	-88.85664
Muscatine	Muscatine	IL	41.413372	-91.00612
Cisco	Cisco	IL	40.020978	-88.72247
Park Ridge	Park Ridge	IL	42.01183	-87.84158
Sadorus	Sadorus	IL	39.945328	-88.36389
Valier	Valier	IL	38.01492	-89.04226
Jacob	Jacob	IL	37.75858	-89.56055
Barrington	Barrington	IL	42.322814	-87.610053
Eureka	Eureka	IL	40.718228	-89.27153
Springfield	Springfield	IL	39.749457	-89.606017
Ullin	Ullin	IL	37.277483	-89.186317
Chicago	Chicago	IL	41.719973	-87.5557
Amf Ohare	Amf Ohare	IL	41.968029	-87.891214
Deer Grove	Deer Grove	IL	41.610151	-89.66298
Hartsburg	Hartsburg	IL	40.247835	-89.44123
Carrier Mills	Carrier Mills	IL	37.692923	-88.65284
Chicago Heights	Chicago Heights	IL	41.511307	-87.6101
Speer	Speer	IL	40.999497	-89.65429
Hillsboro	Hillsboro	IL	39.146809	-89.48442
Chicago	Chicago	IL	41.811929	-87.68732
Walnut	Walnut	IL	41.546706	-89.60081
Farmington	Farmington	IL	40.68847	-90.02166
Prospect Heights	Prospect Heights	IL	42.105576	-87.92816
Sherrard	Sherrard	IL	41.303101	-90.50615
Springfield	Springfield	IL	39.749457	-89.606017
Rock Island	Rock Island	IL	41.520333	-90.541585
Peoria	Peoria	IL	40.731165	-89.603081
Fox River Grove	Fox River Grove	IL	42.194946	-88.21676
Willow Springs	Willow Springs	IL	41.737616	-87.87778
Springfield	Springfield	IL	39.749457	-89.606017
Richview	Richview	IL	38.388876	-89.19244
Herrick	Herrick	IL	39.228594	-88.98873
Carol Stream	Carol Stream	IL	41.839679	-88.088716
Lindenwood	Lindenwood	IL	42.054546	-89.02456
Castleton	Castleton	IL	41.118359	-89.70575
Muncie	Muncie	IL	40.11594	-87.84208
Maeystown	Maeystown	IL	38.30426	-90.135645
Raleigh	Raleigh	IL	37.844963	-88.54416
Creston	Creston	IL	41.93171	-88.96438
Park Forest	Park Forest	IL	41.472934	-87.68767
Concord	Concord	IL	39.817322	-90.36618
Springfield	Springfield	IL	39.749457	-89.606017
Elgin	Elgin	IL	42.037176	-88.25922
Dakota	Dakota	IL	42.403305	-89.55466
London Mills	London Mills	IL	40.688615	-90.24422
Milmine	Milmine	IL	39.919693	-88.67859
West Brooklyn	West Brooklyn	IL	41.722744	-89.15601
Nokomis	Nokomis	IL	39.299771	-89.2864
Oakland	Oakland	IL	39.655063	-88.01806
Chicago	Chicago	IL	41.811929	-87.68732
Champaign	Champaign	IL	40.126854	-88.29315
Waterman	Waterman	IL	41.768498	-88.77539
Tunnel Hill	Tunnel Hill	IL	37.540479	-88.86601
Reddick	Reddick	IL	41.105629	-88.23794
Taylor Springs	Taylor Springs	IL	39.130404	-89.49298
Strasburg	Strasburg	IL	39.354837	-88.63491
Jacksonville	Jacksonville	IL	39.698311	-90.26153
Chicago	Chicago	IL	41.811929	-87.68732
Marengo	Marengo	IL	42.242199	-88.61034
Crescent City	Crescent City	IL	40.766096	-87.85474
Springfield	Springfield	IL	39.749457	-89.606017
Equality	Equality	IL	37.716434	-88.37184
Chicago	Chicago	IL	41.882082	-87.64461
Tennessee	Tennessee	IL	40.403553	-90.8834
Mount Vernon	Mount Vernon	IL	38.322558	-88.90842
Mossville	Mossville	IL	40.817587	-89.56654
Michael	Michael	IL	39.235652	-90.62842
Shannon	Shannon	IL	42.15834	-89.73555
Athens	Athens	IL	39.982768	-89.68326
Whittington	Whittington	IL	38.084617	-88.92096
Danville	Danville	IL	40.133786	-87.62898
Moline	Moline	IL	41.554901	-90.615975
Lake in the Hills	Lake in the Hills	IL	42.185733	-88.348484
Dover	Dover	IL	41.435327	-89.39583
Ursa	Ursa	IL	40.09625	-91.38474
Lisle	Lisle	IL	41.789079	-88.08536
Peoria	Peoria	IL	40.796887	-89.611146
Bone Gap	Bone Gap	IL	38.452172	-87.9939
Lake Fork	Lake Fork	IL	39.969864	-89.35051
Champaign	Champaign	IL	40.108631	-88.2733
Hindsboro	Hindsboro	IL	39.685822	-88.11971
Springfield	Springfield	IL	39.749457	-89.606017
Fillmore	Fillmore	IL	39.114972	-89.28092
Richton Park	Richton Park	IL	41.483844	-87.72134
Carbon Cliff	Carbon Cliff	IL	41.497667	-90.39047
Hagarstown	Hagarstown	IL	38.977111	-88.975507
Keenes	Keenes	IL	38.423947	-88.6692
Norris City	Norris City	IL	37.971434	-88.30419
Bridgeview	Bridgeview	IL	41.742432	-87.80678
Chicago	Chicago	IL	41.898582	-87.6371
Assumption	Assumption	IL	39.530502	-89.03829
Villa Park	Villa Park	IL	41.880429	-87.97813
Weldon	Weldon	IL	40.119483	-88.75367
Olney	Olney	IL	38.72456	-88.08658
Aurora	Aurora	IL	41.760067	-88.25218
Atkinson	Atkinson	IL	41.409646	-90.01821
Colchester	Colchester	IL	40.421857	-90.80333
East Moline	East Moline	IL	41.518733	-90.41788
Cowden	Cowden	IL	39.251624	-88.86505
Joliet	Joliet	IL	41.511644	-88.05698
Bradford	Bradford	IL	41.174037	-89.65849
Hettick	Hettick	IL	39.348487	-90.08365
Beaverville	Beaverville	IL	40.968579	-87.61611
Momence	Momence	IL	41.147918	-87.63579
Ogden	Ogden	IL	40.149486	-87.96347
Smithton	Smithton	IL	38.399148	-89.99604
Manchester	Manchester	IL	39.544196	-90.32677
Davis Junction	Davis Junction	IL	42.101928	-89.09369
Pearl	Pearl	IL	39.469982	-90.63108
Evanston	Evanston	IL	41.811929	-87.68732
Cave In Rock	Cave In Rock	IL	37.495812	-88.16099
Addison	Addison	IL	41.931573	-88.00222
South Wilmington	South Wilmington	IL	41.173313	-88.27494
Albany	Albany	IL	41.766003	-90.22322
Springfield	Springfield	IL	39.749457	-89.606017
Hampshire	Hampshire	IL	42.086218	-88.5036
Kasbeer	Kasbeer	IL	41.504603	-89.46289
Summerfield	Summerfield	IL	38.596948	-89.75117
Chicago	Chicago	IL	41.779384	-87.60544
Smithshire	Smithshire	IL	40.777241	-90.76454
Chicago	Chicago	IL	41.655423	-87.55365
Virgil	Virgil	IL	41.908736	-88.59915
Evanston	Evanston	IL	42.056391	-87.69684
Annapolis	Annapolis	IL	39.138761	-87.83769
Karnak	Karnak	IL	37.279433	-88.93959
Harvey	Harvey	IL	41.609078	-87.66264
Oswego	Oswego	IL	41.684896	-88.34177
Toluca	Toluca	IL	40.992084	-89.15231
Adair	Adair	IL	40.401282	-90.50153
Kenney	Kenney	IL	40.091729	-89.10358
Sycamore	Sycamore	IL	41.990505	-88.68704
Chicago	Chicago	IL	41.787982	-87.7738
Belknap	Belknap	IL	37.308412	-88.88076
Andover	Andover	IL	41.292977	-90.29334
Arlington	Arlington	IL	41.435197	-89.23432
Payson	Payson	IL	39.813094	-91.25561
Illiopolis	Illiopolis	IL	39.855984	-89.2487
Island Lake	Island Lake	IL	42.277691	-88.20074
Paris	Paris	IL	39.608494	-87.69958
Carmi	Carmi	IL	38.087838	-88.15583
Chicago	Chicago	IL	41.904667	-87.62504
Decatur	Decatur	IL	39.878041	-88.95637
Mechanicsburg	Mechanicsburg	IL	39.77386	-89.39012
Summit	Summit	IL	39.148234	-88.593764
Chicago	Chicago	IL	41.860019	-87.6187
Murphysboro	Murphysboro	IL	37.771806	-89.33971
Joliet	Joliet	IL	41.52493	-88.19022
Palmyra	Palmyra	IL	39.429687	-90.01499
Frankfort	Frankfort	IL	41.501178	-87.83875
South Roxana	South Roxana	IL	38.828347	-90.05894
Oblong	Oblong	IL	39.006483	-87.90005
Prairie Du Rocher	Prairie Du Rocher	IL	38.095119	-90.09885
Loraine	Loraine	IL	40.160393	-91.20372
Springfield	Springfield	IL	39.749457	-89.606017
Cuba	Cuba	IL	40.499297	-90.17764
Makanda	Makanda	IL	37.612173	-89.17587
Metropolis	Metropolis	IL	37.18308	-88.73327
Holcomb	Holcomb	IL	42.045123	-89.313593
Fox Valley	Fox Valley	IL	41.839679	-88.088716
Sandoval	Sandoval	IL	38.60823	-89.11963
Oneida	Oneida	IL	41.069414	-90.24177
Lacon	Lacon	IL	41.030697	-89.38586
Ivesdale	Ivesdale	IL	39.950391	-88.43939
Wedron	Wedron	IL	41.438531	-88.76933
Dana	Dana	IL	40.963663	-88.97932
Martinsville	Martinsville	IL	39.32463	-87.86922
Murrayville	Murrayville	IL	39.576392	-90.24769
Rankin	Rankin	IL	40.439688	-87.89016
Alden	Alden	IL	42.324761	-88.452481
La Rose	La Rose	IL	40.975736	-89.23943
Peoria	Peoria	IL	40.744179	-89.718401
Alton	Alton	IL	38.906065	-90.15909
Broughton	Broughton	IL	37.954727	-88.47128
Merna	Merna	IL	40.52835	-88.84075
Saint Augustine	Saint Augustine	IL	40.740729	-90.37946
Jerseyville	Jerseyville	IL	39.114762	-90.32442
Elizabethtown	Elizabethtown	IL	37.511139	-88.28284
Taylor Ridge	Taylor Ridge	IL	41.406276	-90.735
Grand Ridge	Grand Ridge	IL	41.234167	-88.82807
